{
"type": "FeatureCollection",
"name": "CITY COUNCILS & MUNICIPALITIES",
"crs": { "type": "name", "properties": { "name": "urn:ogc:def:crs:OGC:1.3:CRS84" } },
"features": [
{ "type": "Feature", "properties": { "Name": "City Of Harare", "Proximity": "Mimi's Kitchen" }, "geometry": { "type": "Point", "coordinates": [ 28.587547825073745, -20.1673425778962 ] } },
{ "type": "Feature", "properties": { "Name": "City Of MasvingoL", "Proximity": "Tel One Telecommunications" }, "geometry": { "type": "Point", "coordinates": [ 28.588615986859239, -20.167283915558087 ] } },
{ "type": "Feature", "properties": { "Name": "City Of Gweru", "Proximity": "Hall 2" }, "geometry": { "type": "Point", "coordinates": [ 28.588735759186658, -20.167139858585337 ] } },
{ "type": "Feature", "properties": { "Name": "City Of Mutare", "Proximity": "Hall 3" }, "geometry": { "type": "Point", "coordinates": [ 28.588703661667719, -20.168474026382569 ] } },
{ "type": "Feature", "properties": { "Name": "City Of Kwekwe", "Proximity": "Zimbabwe Energy Regulatory Authority" }, "geometry": { "type": "Point", "coordinates": [ 28.587923003992149, -20.166562165393607 ] } },
{ "type": "Feature", "properties": { "Name": "City Of Gwanda", "Proximity": "Ministry Of Foreign Affairs & International Trade" }, "geometry": { "type": "Point", "coordinates": [ 28.587351503094194, -20.167951147477989 ] } }
]
}
