{
"type": "FeatureCollection",
"name": "FOOD COURTS RESTAURANTS",
"crs": { "type": "name", "properties": { "name": "urn:ogc:def:crs:OGC:1.3:CRS84" } },
"features": [
{ "type": "Feature", "properties": { "id": null, "Name": "Mimi's Kitchen", "Category": null }, "geometry": { "type": "MultiPolygon", "coordinates": [ [ [ [ 28.587543595248658, -20.167039553964901 ], [ 28.587334478876695, -20.167220020615506 ], [ 28.58722416479311, -20.16710081755382 ], [ 28.587429714040468, -20.166927251680374 ], [ 28.587543595248658, -20.167039553964901 ] ] ] ] } },
{ "type": "Feature", "properties": { "id": null, "Name": "Food Court", "Category": null }, "geometry": { "type": "MultiPolygon", "coordinates": [ [ [ [ 28.588177014189107, -20.166762770784011 ], [ 28.588137245373016, -20.166653602780119 ], [ 28.588207876139005, -20.166628625985769 ], [ 28.588247665525422, -20.16673982206229 ], [ 28.588177014189107, -20.166762770784011 ] ] ] ] } },
{ "type": "Feature", "properties": { "id": null, "Name": "Kiosk", "Category": null }, "geometry": { "type": "MultiPolygon", "coordinates": [ [ [ [ 28.588543261329278, -20.168592876538465 ], [ 28.588507417661319, -20.168540493879764 ], [ 28.588551545907944, -20.168511053255187 ], [ 28.588586272330975, -20.168565597267634 ], [ 28.588543261329278, -20.168592876538465 ] ] ] ] } },
{ "type": "Feature", "properties": { "id": null, "Name": "Food Court", "Category": null }, "geometry": { "type": "MultiPolygon", "coordinates": [ [ [ [ 28.587846183874444, -20.169338133285162 ], [ 28.587930669671376, -20.169291964886373 ], [ 28.587947018793034, -20.169323601482326 ], [ 28.587864074455094, -20.169363701854586 ], [ 28.587846183874444, -20.169338133285162 ] ] ] ] } },
{ "type": "Feature", "properties": { "id": null, "Name": "Food Court", "Category": null }, "geometry": { "type": "MultiPolygon", "coordinates": [ [ [ [ 28.588260509247316, -20.167375918677269 ], [ 28.588205358585626, -20.167262570917256 ], [ 28.588267847188078, -20.167232359611873 ], [ 28.58831068022171, -20.167369536359125 ], [ 28.588264372604201, -20.167385370934905 ], [ 28.588260509247316, -20.167375918677269 ] ] ] ] } }
]
}
