{
"type": "FeatureCollection",
"name": "GATES",
"crs": { "type": "name", "properties": { "name": "urn:ogc:def:crs:OGC:1.3:CRS84" } },
"features": [
{ "type": "Feature", "properties": { "id": null, "Number": null, "Name": "Gate 4", "Gate No": null }, "geometry": { "type": "MultiLineString", "coordinates": [ [ [ 28.587899496715497, -20.17057371471784 ], [ 28.587994035285288, -20.170747749469921 ] ] ] } },
{ "type": "Feature", "properties": { "id": null, "Number": null, "Name": "Gate 3", "Gate No": null }, "geometry": { "type": "MultiLineString", "coordinates": [ [ [ 28.58776293394925, -20.170325307551106 ], [ 28.58784374627912, -20.170469726113669 ] ] ] } },
{ "type": "Feature", "properties": { "id": null, "Number": null, "Name": "Gate 2", "Gate No": null }, "geometry": { "type": "MultiLineString", "coordinates": [ [ [ 28.58684048419774, -20.168633118766152 ], [ 28.586871895076325, -20.168690301444109 ] ] ] } },
{ "type": "Feature", "properties": { "id": null, "Number": null, "Name": "Gate 1", "Gate No": null }, "geometry": { "type": "MultiLineString", "coordinates": [ [ [ 28.58697835604659, -20.165360397941708 ], [ 28.587096526311427, -20.165296494550958 ] ] ] } }
]
}
