{
"type": "FeatureCollection",
"name": "GROUNDS",
"crs": { "type": "name", "properties": { "name": "urn:ogc:def:crs:OGC:1.3:CRS84" } },
"features": [
{ "type": "Feature", "properties": { "id": null, "Name": null, "Capacity": null }, "geometry": { "type": "MultiPolygon", "coordinates": [ ] } },
{ "type": "Feature", "properties": { "id": null, "Name": null, "Capacity": null }, "geometry": { "type": "MultiPolygon", "coordinates": [ ] } },
{ "type": "Feature", "properties": { "id": null, "Name": "Unsanctioned Event", "Capacity": null }, "geometry": { "type": "MultiPolygon", "coordinates": [ [ [ [ 28.589316824323856, -20.170632713009287 ], [ 28.589324026663082, -20.170630063209515 ], [ 28.589331276855958, -20.170627532438299 ], [ 28.589338572696416, -20.170625121465669 ], [ 28.589345911964472, -20.170622831025259 ], [ 28.589353292426946, -20.170620661813981 ], [ 28.589360711838111, -20.170618614491893 ], [ 28.589368167940407, -20.170616689681946 ], [ 28.589375658465084, -20.170614887969826 ], [ 28.589383181132941, -20.170613209903749 ], [ 28.589390733654991, -20.1706116559943 ], [ 28.589398313733145, -20.170610226714327 ], [ 28.589405919060965, -20.170608922498698 ], [ 28.589413547324298, -20.170607743744281 ], [ 28.589421196202032, -20.170606690809731 ], [ 28.589428863366773, -20.170605764015438 ], [ 28.589436546485562, -20.170604963643392 ], [ 28.589444243220587, -20.170604289937163 ], [ 28.589451951229908, -20.170603743101704 ], [ 28.589459668168129, -20.170603323303432 ], [ 28.589467391687155, -20.170603030670058 ], [ 28.589475119436887, -20.17060286529064 ], [ 28.589482849065927, -20.170602827215493 ], [ 28.589490578222318, -20.170602916456204 ], [ 28.589498304554244, -20.170603132985619 ], [ 28.589506025710737, -20.170603476737856 ], [ 28.589513739342436, -20.170603947608289 ], [ 28.589521443102221, -20.170604545453671 ], [ 28.589529134646021, -20.170605270092086 ], [ 28.589536811633458, -20.17060612130302 ], [ 28.589544471728583, -20.170607098827485 ], [ 28.5895521126006, -20.170608202368037 ], [ 28.589559731924545, -20.170609431588879 ], [ 28.589567327382031, -20.170610786116004 ], [ 28.589574896661912, -20.170612265537251 ], [ 28.589582437461019, -20.170613869402452 ], [ 28.58958994748485, -20.170615597223595 ], [ 28.589597424448264, -20.170617448474918 ], [ 28.589604866076172, -20.170619422593155 ], [ 28.5896103962477, -20.170620988411891 ], [ 28.589612270104254, -20.170621518977608 ], [ 28.589619634279611, -20.170623736990386 ], [ 28.589626956361485, -20.170626075956591 ], [ 28.589634234121924, -20.170628535164539 ], [ 28.589641465346453, -20.17063111386593 ], [ 28.589648647834757, -20.170633811276133 ], [ 28.589655779401362, -20.170636626574357 ], [ 28.589662857876284, -20.170639558903996 ], [ 28.589669881105685, -20.17064260737278 ], [ 28.589676846952546, -20.170645771053131 ], [ 28.589683753297301, -20.170649048982412 ], [ 28.589690598038494, -20.170652440163209 ], [ 28.589697379093401, -20.170655943563663 ], [ 28.589704094398698, -20.170659558117766 ], [ 28.589710741911059, -20.170663282725663 ], [ 28.589717319607768, -20.170667116254062 ], [ 28.589723825487376, -20.170671057536488 ], [ 28.58973025757027, -20.170675105373672 ], [ 28.589736613899298, -20.170679258533962 ], [ 28.589742892540361, -20.170683515753634 ], [ 28.589749091582988, -20.1706878757373 ], [ 28.589755209140939, -20.170692337158311 ], [ 28.589761243352765, -20.170696898659148 ], [ 28.589767192382364, -20.170701558851846 ], [ 28.589773054419577, -20.170706316318395 ], [ 28.589778827680693, -20.170711169611195 ], [ 28.589784510409025, -20.170716117253502 ], [ 28.589790100875415, -20.170721157739838 ], [ 28.589795597378814, -20.1707262895365 ], [ 28.589800998246723, -20.170731511081982 ], [ 28.589806301835772, -20.170736820787461 ], [ 28.589811506532175, -20.170742217037322 ], [ 28.58981661075223, -20.170747698189579 ], [ 28.589821612942846, -20.17075326257644 ], [ 28.589826511581929, -20.170758908504798 ], [ 28.589831305178905, -20.17076463425667 ], [ 28.589835992275191, -20.170770438089846 ], [ 28.589840571444579, -20.170776318238353 ], [ 28.5898450412937, -20.170782272912955 ], [ 28.589849400462477, -20.17078830030178 ], [ 28.58985364762448, -20.170794398570816 ], [ 28.589857781487375, -20.170800565864486 ], [ 28.589861800793297, -20.170806800306188 ], [ 28.589865704319237, -20.170813099998938 ], [ 28.589869490877426, -20.170819463025836 ], [ 28.589873159315665, -20.170825887450771 ], [ 28.589876708517721, -20.170832371318898 ], [ 28.589880137403629, -20.170838912657317 ], [ 28.58988344493002, -20.170845509475608 ], [ 28.589886630090472, -20.170852159766529 ], [ 28.58988969191579, -20.170858861506495 ], [ 28.589892629474303, -20.170865612656318 ], [ 28.589895441872169, -20.17087241116176 ], [ 28.589898128253605, -20.170879254954166 ], [ 28.58990068780118, -20.17088614195109 ], [ 28.589903119736061, -20.170893070056987 ], [ 28.589905423318235, -20.170900037163751 ], [ 28.589907597846768, -20.17090704115143 ], [ 28.589909642659958, -20.170914079888838 ], [ 28.589911557135597, -20.17092115123425 ], [ 28.58991334069114, -20.170928253035992 ], [ 28.589914992783864, -20.170935383133106 ], [ 28.589916512911046, -20.170942539356055 ], [ 28.589917900610125, -20.170949719527332 ], [ 28.589919155458833, -20.170956921462157 ], [ 28.589920277075336, -20.170964142969122 ], [ 28.58992126511831, -20.170971381850869 ], [ 28.589922119287113, -20.170978635904738 ], [ 28.589922839321808, -20.170985902923448 ], [ 28.589923425003285, -20.170993180695802 ], [ 28.589923876153321, -20.171000467007318 ], [ 28.589924192634623, -20.171007759640901 ], [ 28.589924374350854, -20.171015056377541 ], [ 28.589924421246721, -20.171022354996982 ], [ 28.589924333307927, -20.171029653278385 ], [ 28.589924110561217, -20.171036949001056 ], [ 28.589923753074348, -20.171044239945012 ], [ 28.589923260956073, -20.171051523891755 ], [ 28.589922634356121, -20.171058798624944 ], [ 28.58992187346513, -20.171066061930986 ], [ 28.589920978514613, -20.171073311599805 ], [ 28.589919949776856, -20.171080545425468 ], [ 28.589918787564887, -20.171087761206863 ], [ 28.589917492232306, -20.171094956748352 ], [ 28.589916064173259, -20.171102129860465 ], [ 28.589914503822236, -20.171109278360543 ], [ 28.58991281165402, -20.171116400073473 ], [ 28.58991098818349, -20.171123492832209 ], [ 28.589909250643348, -20.171129771504251 ], [ 28.589909033965466, -20.171130554478577 ], [ 28.589906949594571, -20.171137582863828 ], [ 28.589904735705016, -20.171144575849379 ], [ 28.589902392970444, -20.171151531307366 ], [ 28.589899922103672, -20.171158447121407 ], [ 28.58989732385653, -20.171165321187107 ], [ 28.589894599019591, -20.171172151412843 ], [ 28.589891748421977, -20.171178935720278 ], [ 28.58988877293103, -20.171185672045084 ], [ 28.589885673452144, -20.171192358337507 ], [ 28.589882450928407, -20.171198992563045 ], [ 28.589879106340366, -20.171205572703016 ], [ 28.589875640705696, -20.171212096755209 ], [ 28.58987205507891, -20.171218562734438 ], [ 28.589868350551043, -20.171224968673268 ], [ 28.589864528249294, -20.17123131262246 ], [ 28.589860589336705, -20.171237592651675 ], [ 28.589856535011823, -20.171243806850008 ], [ 28.589852366508264, -20.171249953326559 ], [ 28.589848085094438, -20.171256030211108 ], [ 28.589843692073078, -20.171262035654546 ], [ 28.589839188780889, -20.171267967829515 ], [ 28.589834576588139, -20.171273824930985 ], [ 28.589829856898216, -20.171279605176721 ], [ 28.589825031147235, -20.171285306807881 ], [ 28.589820100803564, -20.171290928089601 ], [ 28.589815067367422, -20.171296467311372 ], [ 28.589809932370375, -20.171301922787755 ], [ 28.589804697374905, -20.171307292858703 ], [ 28.589799363973917, -20.171312575890216 ], [ 28.589793933790272, -20.171317770274758 ], [ 28.589788408476252, -20.17132287443177 ], [ 28.589782789713123, -20.171327886808132 ], [ 28.589777079210567, -20.171332805878667 ], [ 28.589771278706163, -20.171337630146585 ], [ 28.589765389964921, -20.17134235814396 ], [ 28.589759414778658, -20.171346988432127 ], [ 28.58975335496552, -20.171351519602162 ], [ 28.589747212369392, -20.171355950275309 ], [ 28.589740988859365, -20.171360279103414 ], [ 28.589734686329123, -20.171364504769269 ], [ 28.589728306696433, -20.171368625987071 ], [ 28.589721851902485, -20.171372641502803 ], [ 28.589717889686334, -20.171375013853758 ], [ 28.589715323911367, -20.171376550094632 ], [ 28.589708724709421, -20.171380350573191 ], [ 28.589702056304674, -20.171384041782115 ], [ 28.5896953207262, -20.171387622598193 ], [ 28.589688520023525, -20.171391091931845 ], [ 28.589681656265974, -20.171394448727433 ], [ 28.589674731542068, -20.171397691963527 ], [ 28.589667747958888, -20.171400820653247 ], [ 28.589660707641411, -20.171403833844607 ], [ 28.589313119770051, -20.171552054067771 ], [ 28.589309205183735, -20.171553977375034 ], [ 28.58930236708677, -20.171557195507038 ], [ 28.5892954707051, -20.17156030076907 ], [ 28.589288518128122, -20.171563292220348 ], [ 28.58928207306127, -20.171565938378265 ], [ 28.589281511462239, -20.171566168954545 ], [ 28.589274452830239, -20.171568930100086 ], [ 28.589267344370683, -20.171571574820472 ], [ 28.58926018823718, -20.171574102314409 ], [ 28.589252986597835, -20.171576511816138 ], [ 28.589245741634496, -20.171578802595661 ], [ 28.589238455542176, -20.171580973958942 ], [ 28.589231130528319, -20.17158302524814 ], [ 28.589223768812175, -20.171584955841752 ], [ 28.589216372624112, -20.171586765154885 ], [ 28.589208944204945, -20.171588452639359 ], [ 28.589201485805244, -20.171590017783934 ], [ 28.589193999684682, -20.171591460114417 ], [ 28.589186488111309, -20.171592779193816 ], [ 28.589178953360893, -20.171593974622496 ], [ 28.589171397716228, -20.171595046038274 ], [ 28.589163823466446, -20.171595993116554 ], [ 28.589156232906298, -20.171596815570386 ], [ 28.589148628335497, -20.171597513150601 ], [ 28.589141012057983, -20.171598085645851 ], [ 28.589133386381235, -20.171598532882673 ], [ 28.589125753615626, -20.171598854725595 ], [ 28.589118116073628, -20.171599051077077 ], [ 28.589115535544853, -20.171599074991093 ], [ 28.589110476069177, -20.171599121877648 ], [ 28.589102835916965, -20.171599067105848 ], [ 28.589095197931705, -20.171598886778281 ], [ 28.589087564427476, -20.171598580949571 ], [ 28.589079937716996, -20.171598149712377 ], [ 28.589072320110919, -20.17159759319733 ], [ 28.589064713917132, -20.171596911573076 ], [ 28.589057121440089, -20.171596105046078 ], [ 28.589049544980064, -20.17159517386073 ], [ 28.589041986832488, -20.171594118299119 ], [ 28.589034449287247, -20.171592938681055 ], [ 28.589026934627984, -20.171591635363935 ], [ 28.589019445131402, -20.171590208742622 ], [ 28.58901198306658, -20.171588659249316 ], [ 28.589004550694298, -20.171586987353482 ], [ 28.588997150266326, -20.171585193561647 ], [ 28.588989784024761, -20.171583278417263 ], [ 28.588982454201357, -20.171581242500562 ], [ 28.588975163016805, -20.171579086428391 ], [ 28.588967912680108, -20.17157681085391 ], [ 28.588960705387887, -20.171574416466601 ], [ 28.588953543323733, -20.171571903991868 ], [ 28.588946428657518, -20.171569274190919 ], [ 28.588939363544771, -20.171566527860488 ], [ 28.588932350125983, -20.171563665832615 ], [ 28.588925390526015, -20.171560688974438 ], [ 28.588918486853384, -20.171557598187817 ], [ 28.588911641199704, -20.171554394409192 ], [ 28.588904855638976, -20.171551078609184 ], [ 28.588898132227012, -20.171547651792366 ], [ 28.588891473000793, -20.171544114996976 ], [ 28.588884879977858, -20.171540469294566 ], [ 28.588878355155664, -20.171536715789625 ], [ 28.588871900511048, -20.171532855619397 ], [ 28.588865517999526, -20.171528889953336 ], [ 28.588859209554826, -20.17152481999295 ], [ 28.588852977088184, -20.171520646971295 ], [ 28.588846822487834, -20.171516372152677 ], [ 28.588840747618423, -20.171511996832187 ], [ 28.588834754320455, -20.171507522335467 ], [ 28.588828844409672, -20.171502950018127 ], [ 28.588823019676607, -20.171498281265414 ], [ 28.588817281885959, -20.171493517491818 ], [ 28.588811632776075, -20.171488660140625 ], [ 28.588806074058468, -20.171483710683447 ], [ 28.588800607417234, -20.171478670619816 ], [ 28.588795234508588, -20.171473541476715 ], [ 28.588789956960333, -20.171468324808089 ], [ 28.588784776371401, -20.17146302219443 ], [ 28.588779694311327, -20.171457635242284 ], [ 28.588774712319804, -20.171452165583716 ], [ 28.58876983190622, -20.171446614875837 ], [ 28.588765054549157, -20.171440984800341 ], [ 28.588760381696002, -20.171435277062969 ], [ 28.588755814762465, -20.171429493392981 ], [ 28.588751355132167, -20.171423635542645 ], [ 28.588747004156222, -20.171417705286686 ], [ 28.58874276315283, -20.171411704421793 ], [ 28.588738633406859, -20.171405634766042 ], [ 28.588734616169489, -20.171399498158326 ], [ 28.588730712657785, -20.17139329645785 ], [ 28.588726924054381, -20.171387031543528 ], [ 28.588723251507087, -20.171380705313425 ], [ 28.58871969612855, -20.171374319684176 ], [ 28.588716258995927, -20.171367876590423 ], [ 28.58871294115054, -20.17136137798423 ], [ 28.58870974359758, -20.171354825834449 ], [ 28.588706667305772, -20.171348222126166 ], [ 28.588703713207131, -20.171341568860104 ], [ 28.588700882196633, -20.171334868051975 ], [ 28.588698175131967, -20.1713281217319 ], [ 28.588695592833275, -20.171321331943819 ], [ 28.588693136082881, -20.171314500744785 ], [ 28.588690805625102, -20.171307630204435 ], [ 28.588688602165959, -20.171300722404336 ], [ 28.588686526373021, -20.171293779437317 ], [ 28.588684578875153, -20.171286803406854 ], [ 28.588682760262387, -20.171279796426479 ], [ 28.588681071085666, -20.171272760619058 ], [ 28.588679511856753, -20.171265698116205 ], [ 28.588678083048023, -20.171258611057635 ], [ 28.588676785092336, -20.171251501590511 ], [ 28.588675618382915, -20.171244371868731 ], [ 28.588674583273214, -20.171237224052398 ], [ 28.58867368007682, -20.171230060307046 ], [ 28.588672909067355, -20.17122288280305 ], [ 28.588672270478394, -20.171215693714959 ], [ 28.588671764503378, -20.171208495220824 ], [ 28.588671391295598, -20.17120128950156 ], [ 28.588671150968093, -20.171194078740264 ], [ 28.588671043593664, -20.171186865121534 ], [ 28.588671069204825, -20.171179650830858 ], [ 28.588671227793789, -20.171172438053954 ], [ 28.588671519312495, -20.171165228976019 ], [ 28.588671943672608, -20.171158025781182 ], [ 28.588672500745538, -20.171150830651754 ], [ 28.588673190362492, -20.171143645767621 ], [ 28.588674012314527, -20.171136473305584 ], [ 28.588674966352588, -20.17112931543863 ], [ 28.588676052187633, -20.171122174335359 ], [ 28.588677269490663, -20.171115052159287 ], [ 28.588678617892853, -20.17110795106818 ], [ 28.588680096985673, -20.171100873213458 ], [ 28.588681706320994, -20.171093820739429 ], [ 28.588683445411217, -20.171086795782802 ], [ 28.588685313729435, -20.171079800471858 ], [ 28.588687310709595, -20.171072836925948 ], [ 28.588689435746677, -20.171065907254807 ], [ 28.588691688196832, -20.17105901355788 ], [ 28.588694067377634, -20.171052157923707 ], [ 28.58869657256826, -20.171045342429334 ], [ 28.5886992030097, -20.171038569139597 ], [ 28.588701957904998, -20.171031840106604 ], [ 28.588704836419524, -20.171025157368991 ], [ 28.588707837681142, -20.171018522951403 ], [ 28.588710960780574, -20.17101193886386 ], [ 28.588714204771609, -20.171005407101092 ], [ 28.588717568671409, -20.170998929642003 ], [ 28.588721051460819, -20.170992508449043 ], [ 28.588724652084654, -20.170986145467609 ], [ 28.588728369452035, -20.17097984262546 ], [ 28.588732202436724, -20.170973601832163 ], [ 28.588736149877434, -20.170967424978418 ], [ 28.588740210578216, -20.170961313935642 ], [ 28.588744383308807, -20.17095527055524 ], [ 28.588748666804999, -20.170949296668162 ], [ 28.588753059769026, -20.170943394084272 ], [ 28.588757560869976, -20.170937564591863 ], [ 28.58876216874414, -20.170931809957057 ], [ 28.588766881995486, -20.170926131923302 ], [ 28.588771699196055, -20.170920532210854 ], [ 28.588776618886392, -20.170915012516236 ], [ 28.588779743731383, -20.170911627937155 ], [ 28.588781639575991, -20.1709095745117 ], [ 28.588786759743755, -20.170904219844779 ], [ 28.588791977838422, -20.170898950137758 ], [ 28.5887972922791, -20.170893766987174 ], [ 28.588802701455688, -20.170888671963326 ], [ 28.588808203729382, -20.170883666609829 ], [ 28.588813797433176, -20.170878752443144 ], [ 28.588819480872381, -20.170873930952069 ], [ 28.58882525232508, -20.170869203597348 ], [ 28.588831110042737, -20.170864571811219 ], [ 28.588837052250653, -20.170860036996935 ], [ 28.58884307714855, -20.170855600528377 ], [ 28.58884918291109, -20.17085126374965 ], [ 28.588855367688424, -20.170847027974656 ], [ 28.588861629606786, -20.170842894486654 ], [ 28.58886796676903, -20.170838864537963 ], [ 28.588874377255213, -20.170834939349508 ], [ 28.588880859123176, -20.170831120110478 ], [ 28.589316824323856, -20.170632713009287 ] ] ] ] } },
{ "type": "Feature", "properties": { "id": null, "Name": "Unsanctioned Event", "Capacity": null }, "geometry": { "type": "MultiPolygon", "coordinates": [ ] } },
{ "type": "Feature", "properties": { "id": null, "Name": "Small Ground", "Capacity": null }, "geometry": { "type": "MultiPolygon", "coordinates": [ [ [ [ 28.589803124909473, -20.165843708941072 ], [ 28.589261625747024, -20.165741965792268 ], [ 28.589261417052409, -20.165741928899038 ], [ 28.589261261771977, -20.165741903532805 ], [ 28.589260679769463, -20.165741798561481 ], [ 28.58925736318562, -20.165741200374679 ], [ 28.589253478170541, -20.165740433159225 ], [ 28.589249607907064, -20.165739602119498 ], [ 28.589245753571021, -20.165738707507984 ], [ 28.589241916333414, -20.165737749596488 ], [ 28.589238097360056, -20.165736728676048 ], [ 28.589234297811206, -20.165735645056824 ], [ 28.589230518841227, -20.165734499068023 ], [ 28.589226761598209, -20.165733291057823 ], [ 28.589223027223671, -20.165732021393232 ], [ 28.589219316852162, -20.165730690459998 ], [ 28.589215631610948, -20.165729298662473 ], [ 28.589211972619655, -20.165727846423504 ], [ 28.589208340989941, -20.165726334184306 ], [ 28.589204737825153, -20.165724762404306 ], [ 28.589201164219961, -20.165723131561048 ], [ 28.589197621260105, -20.165721442150005 ], [ 28.589194110021964, -20.165719694684427 ], [ 28.589190631572315, -20.165717889695248 ], [ 28.589187186967955, -20.165716027730824 ], [ 28.5891837772554, -20.165714109356855 ], [ 28.589180403470575, -20.165712135156159 ], [ 28.589179890631033, -20.16571182325233 ], [ 28.589177066638484, -20.165710105728547 ], [ 28.589173767772895, -20.165708021690584 ], [ 28.589170507876059, -20.165705883675411 ], [ 28.589167287938363, -20.165703692332606 ], [ 28.589164108938085, -20.16570144832793 ], [ 28.589160971841036, -20.165699152343137 ], [ 28.589157877600321, -20.165696805075768 ], [ 28.589154827156001, -20.165694407238984 ], [ 28.589151821434857, -20.165691959561261 ], [ 28.589148861350054, -20.165689462786244 ], [ 28.589145947800912, -20.165686917672485 ], [ 28.58914308167261, -20.165684324993236 ], [ 28.589140263835905, -20.165681685536182 ], [ 28.589137495146907, -20.165679000103214 ], [ 28.589134776446766, -20.165676269510229 ], [ 28.589132108561479, -20.165673494586812 ], [ 28.589129492301566, -20.165670676176013 ], [ 28.58912692846188, -20.165667815134118 ], [ 28.589124417821367, -20.165664912330332 ], [ 28.589121961142787, -20.165661968646596 ], [ 28.589119559172495, -20.16565898497722 ], [ 28.589117212640257, -20.165655962228694 ], [ 28.589114922258972, -20.165652901319373 ], [ 28.589112688724487, -20.1656498031792 ], [ 28.589110512715383, -20.165646668749417 ], [ 28.589108394892751, -20.165643498982341 ], [ 28.589106335900016, -20.165640294840983 ], [ 28.589104336362727, -20.165637057298778 ], [ 28.589102396888368, -20.165633787339367 ], [ 28.589100518066168, -20.165630485956203 ], [ 28.589098700466938, -20.165627154152279 ], [ 28.589096944642897, -20.165623792939847 ], [ 28.589095251127464, -20.165620403340107 ], [ 28.589093620435168, -20.16561698638284 ], [ 28.589092053061425, -20.165613543106186 ], [ 28.58909054948241, -20.165610074556238 ], [ 28.589089110154948, -20.165606581786811 ], [ 28.589087735516305, -20.165603065859056 ], [ 28.589086425984117, -20.165599527841138 ], [ 28.589085181956239, -20.165595968807988 ], [ 28.589084003810612, -20.165592389840846 ], [ 28.589082891905171, -20.165588792027112 ], [ 28.589081846577717, -20.165585176459778 ], [ 28.589080868145846, -20.165581544237355 ], [ 28.589079956906794, -20.165577896463354 ], [ 28.589079113137423, -20.165574234245991 ], [ 28.589078337094058, -20.165570558697937 ], [ 28.589077629012483, -20.165566870935844 ], [ 28.589076989107809, -20.165563172080105 ], [ 28.589076417574443, -20.16555946325451 ], [ 28.589075914586029, -20.165555745585813 ], [ 28.589075480295364, -20.165552020203521 ], [ 28.589075114834394, -20.165548288239439 ], [ 28.589074818314145, -20.165544550827391 ], [ 28.589074590824705, -20.165540809102854 ], [ 28.589074432435165, -20.165537064202628 ], [ 28.589074343193658, -20.165533317264433 ], [ 28.589074323127292, -20.165529569426663 ], [ 28.589074372242148, -20.165525821827956 ], [ 28.589074490523306, -20.165522075606873 ], [ 28.589074677934814, -20.165518331901577 ], [ 28.589074934419745, -20.165514591849455 ], [ 28.589075259900174, -20.165510856586778 ], [ 28.589075654277195, -20.165507127248372 ], [ 28.589076117430988, -20.165503404967254 ], [ 28.589076649220843, -20.165499690874306 ], [ 28.589077249485189, -20.165495986097934 ], [ 28.589077918041649, -20.165492291763673 ], [ 28.589078654687103, -20.165488608993911 ], [ 28.589079459197752, -20.165484938907543 ], [ 28.589080331329153, -20.165481282619577 ], [ 28.589081270816358, -20.165477641240827 ], [ 28.589082277373912, -20.16547401587761 ], [ 28.589083350696018, -20.16547040763135 ], [ 28.589084490456589, -20.165466817598308 ], [ 28.589085696309329, -20.165463246869137 ], [ 28.589086967887884, -20.165459696528693 ], [ 28.589088304805934, -20.165456167655599 ], [ 28.589089706657301, -20.165452661322007 ], [ 28.589091173016072, -20.165449178593143 ], [ 28.589092703436759, -20.165445720527142 ], [ 28.589094297454377, -20.165442288174592 ], [ 28.589095954584653, -20.16543888257829 ], [ 28.589097674324126, -20.165435504772894 ], [ 28.589099456150301, -20.165432155784622 ], [ 28.589101299521843, -20.165428836630944 ], [ 28.5891032038787, -20.165425548320268 ], [ 28.589105168642309, -20.16542229185162 ], [ 28.589107193215742, -20.165419068214348 ], [ 28.589109276983898, -20.165415878387854 ], [ 28.58911141931371, -20.16541272334122 ], [ 28.589113619554301, -20.165409604033005 ], [ 28.589115877037202, -20.165406521410901 ], [ 28.589118191076565, -20.165403476411427 ], [ 28.589120560969352, -20.165400469959714 ], [ 28.589122985995559, -20.165397502969153 ], [ 28.589125465418419, -20.165394576341136 ], [ 28.589127998484656, -20.165391690964828 ], [ 28.589130584424684, -20.165388847716834 ], [ 28.589133222452869, -20.165386047460974 ], [ 28.589135911767734, -20.165383291047995 ], [ 28.589138651552236, -20.165380579315332 ], [ 28.589141440973993, -20.16537791308685 ], [ 28.589144279185522, -20.165375293172563 ], [ 28.589147165324555, -20.165372720368453 ], [ 28.589150098514242, -20.165370195456163 ], [ 28.58915307786344, -20.165367719202781 ], [ 28.58915610246698, -20.165365292360647 ], [ 28.589159171405957, -20.165362915667053 ], [ 28.589162283747974, -20.165360589844056 ], [ 28.589165438547475, -20.165358315598283 ], [ 28.589168634845979, -20.16535609362068 ], [ 28.58917187167242, -20.165353924586292 ], [ 28.589175148043392, -20.165351809154128 ], [ 28.58917846296351, -20.165349747966847 ], [ 28.589181815425661, -20.165347741650713 ], [ 28.589185204411301, -20.165345790815206 ], [ 28.589188628890838, -20.165343896053063 ], [ 28.589192087823854, -20.16534205793991 ], [ 28.58919558015949, -20.165340277034193 ], [ 28.589199104836734, -20.165338553876978 ], [ 28.589202660784743, -20.165336888991785 ], [ 28.589206246923169, -20.165335282884406 ], [ 28.589209862162502, -20.165333736042818 ], [ 28.589213505404391, -20.165332248936963 ], [ 28.589217175541975, -20.165330822018646 ], [ 28.58922087146021, -20.165329455721352 ], [ 28.589224592036238, -20.165328150460219 ], [ 28.589228336139708, -20.165326906631783 ], [ 28.589232102633108, -20.165325724613925 ], [ 28.589235890372134, -20.165324604765779 ], [ 28.589239698206026, -20.165323547427541 ], [ 28.589243524977913, -20.165322552920468 ], [ 28.589247369525175, -20.165321621546678 ], [ 28.589248801879457, -20.165321299564582 ], [ 28.5892512306798, -20.16532075358916 ], [ 28.589255107268709, -20.165319949311588 ], [ 28.589258998114158, -20.165319208958323 ], [ 28.589262902034065, -20.165318532754284 ], [ 28.589266817842358, -20.165317920904915 ], [ 28.589270744349381, -20.1653173735961 ], [ 28.589274680362198, -20.165316890994134 ], [ 28.589278624685022, -20.165316473245607 ], [ 28.589282576119498, -20.165316120477463 ], [ 28.589286533465142, -20.165315832796853 ], [ 28.58929049551968, -20.165315610291202 ], [ 28.589294461079366, -20.165315453028096 ], [ 28.589298428939436, -20.165315361055313 ], [ 28.589302397894393, -20.165315334400798 ], [ 28.589306366738427, -20.165315373072644 ], [ 28.589310334265765, -20.165315477059103 ], [ 28.589314299270999, -20.16531564632859 ], [ 28.589318260549536, -20.165315880829677 ], [ 28.58932221689788, -20.165316180491111 ], [ 28.589326167114056, -20.165316545221863 ], [ 28.589330109997931, -20.165316974911093 ], [ 28.58988296385839, -20.165413684313865 ], [ 28.589884293256301, -20.165414030213803 ], [ 28.589888169170262, -20.165415107528162 ], [ 28.589892024655008, -20.165416248335074 ], [ 28.589895858544164, -20.1654174522894 ], [ 28.58989966967788, -20.165418719026931 ], [ 28.589903456903215, -20.165420048164453 ], [ 28.589907219074444, -20.165421439299855 ], [ 28.589910955053409, -20.165422892012288 ], [ 28.589914663709905, -20.165424405862275 ], [ 28.589918343921983, -20.165425980391873 ], [ 28.589921994576272, -20.165427615124702 ], [ 28.589925614568386, -20.165429309566232 ], [ 28.58992920280318, -20.165431063203879 ], [ 28.589932758195143, -20.16543287550709 ], [ 28.589936279668663, -20.165434745927644 ], [ 28.589939766158437, -20.165436673899656 ], [ 28.589943216609715, -20.165438658839896 ], [ 28.589946629978652, -20.165440700147858 ], [ 28.58995000523262, -20.165442797206023 ], [ 28.589953341350526, -20.16544494937995 ], [ 28.589956637323123, -20.165447156018573 ], [ 28.589959892153299, -20.165449416454337 ], [ 28.589963104856391, -20.165451730003394 ], [ 28.589966224723355, -20.165454058839405 ], [ 28.589966274460483, -20.165454095965853 ], [ 28.589969400006684, -20.165456513625955 ], [ 28.589972480549459, -20.165458982252304 ], [ 28.589975515156862, -20.165461501098083 ], [ 28.589978502910856, -20.165464069401267 ], [ 28.589981442907565, -20.165466686384903 ], [ 28.589984334257579, -20.165469351257297 ], [ 28.589987176086197, -20.165472063212249 ], [ 28.58998996753369, -20.165474821429321 ], [ 28.589992707755581, -20.165477625074107 ], [ 28.58999539592288, -20.165480473298434 ], [ 28.589998031222372, -20.165483365240661 ], [ 28.590000612856798, -20.165486300025869 ], [ 28.590003140045152, -20.165489276766255 ], [ 28.590005612022907, -20.165492294561282 ], [ 28.59000802804222, -20.165495352497985 ], [ 28.590010387372185, -20.165498449651267 ], [ 28.590012689299051, -20.165501585084172 ], [ 28.590014933126433, -20.165504757848161 ], [ 28.590017118175513, -20.165507966983398 ], [ 28.590019243785253, -20.165511211519021 ], [ 28.590021309312611, -20.16551449047353 ], [ 28.590023314132711, -20.165517802854918 ], [ 28.590025257639038, -20.165521147661135 ], [ 28.590027139243649, -20.165524523880297 ], [ 28.590028958377292, -20.165527930491013 ], [ 28.590030714489643, -20.165531366462691 ], [ 28.590032407049435, -20.165534830755917 ], [ 28.590034035544612, -20.165538322322611 ], [ 28.590035599482526, -20.16554184010651 ], [ 28.590037098390024, -20.165545383043408 ], [ 28.590038531813679, -20.165548950061464 ], [ 28.590039899319812, -20.165552540081602 ], [ 28.590041200494738, -20.165556152017722 ], [ 28.590042434944802, -20.165559784777145 ], [ 28.590043602296561, -20.165563437260889 ], [ 28.590044702196845, -20.165567108363952 ], [ 28.590045734312909, -20.165570796975775 ], [ 28.590046698332515, -20.165574501980451 ], [ 28.590047593964012, -20.16557822225715 ], [ 28.590048420936451, -20.165581956680359 ], [ 28.590049178999642, -20.165585704120357 ], [ 28.59004986792425, -20.165589463443442 ], [ 28.590050487501863, -20.165593233512325 ], [ 28.590051037545027, -20.165597013186495 ], [ 28.590051517887339, -20.165600801322491 ], [ 28.590051928383481, -20.165604596774301 ], [ 28.590052268909265, -20.165608398393744 ], [ 28.590052539361668, -20.165612205030701 ], [ 28.590052739658862, -20.165616015533605 ], [ 28.590052869740251, -20.165619828749655 ], [ 28.590052929566475, -20.165623643525301 ], [ 28.590052919119433, -20.165627458706457 ], [ 28.590052838402279, -20.165631273138942 ], [ 28.590052687439421, -20.165635085668796 ], [ 28.590052466276536, -20.165638895142639 ], [ 28.590052174980517, -20.165642700408032 ], [ 28.590051813639477, -20.165646500313752 ], [ 28.590051382362748, -20.165650293710279 ], [ 28.590050881280774, -20.165654079449993 ], [ 28.590050310545148, -20.165657856387629 ], [ 28.590049670328522, -20.165661623380558 ], [ 28.590048960824582, -20.165665379289177 ], [ 28.590048182247958, -20.165669122977238 ], [ 28.590047334834178, -20.165672853312188 ], [ 28.590046418839606, -20.165676569165491 ], [ 28.590045434541352, -20.165680269413041 ], [ 28.590044382237185, -20.165683952935407 ], [ 28.590043262245434, -20.165687618618222 ], [ 28.590042074904932, -20.165691265352567 ], [ 28.59004082057487, -20.165694892035159 ], [ 28.590039499634706, -20.16569849756889 ], [ 28.590038112484063, -20.16570208086296 ], [ 28.590036659542566, -20.165705640833359 ], [ 28.590035141249775, -20.165709176403105 ], [ 28.590033558064995, -20.165712686502584 ], [ 28.590031910467186, -20.165716170069924 ], [ 28.590030198954778, -20.165719626051274 ], [ 28.590028424045535, -20.165723053401077 ], [ 28.590026586276412, -20.165726451082502 ], [ 28.590024686203368, -20.165729818067661 ], [ 28.590022724401233, -20.16573315333795 ], [ 28.59002070146348, -20.165736455884375 ], [ 28.590018618002105, -20.165739724707834 ], [ 28.590016474647399, -20.165742958819425 ], [ 28.590014272047764, -20.165746157240768 ], [ 28.59001201086955, -20.165749319004224 ], [ 28.590009691796819, -20.165752443153309 ], [ 28.590007315531139, -20.165755528742874 ], [ 28.59000488279138, -20.165758574839479 ], [ 28.590002394313512, -20.165761580521583 ], [ 28.589999850850351, -20.165764544879877 ], [ 28.589997253171362, -20.165767467017606 ], [ 28.589994602062394, -20.165770346050731 ], [ 28.589991898325472, -20.165773181108271 ], [ 28.589989142778553, -20.165775971332547 ], [ 28.589986336255237, -20.165778715879469 ], [ 28.58998347960458, -20.165781413918719 ], [ 28.589980573690777, -20.165784064634078 ], [ 28.58997761939294, -20.165786667223653 ], [ 28.589974617604828, -20.165789220900088 ], [ 28.589971569234535, -20.16579172489082 ], [ 28.589968475204266, -20.165794178438329 ], [ 28.58996533645006, -20.165796580800372 ], [ 28.589962153921451, -20.165798931250162 ], [ 28.589958928581229, -20.165801229076632 ], [ 28.589955661405153, -20.165803473584649 ], [ 28.589952353381609, -20.165805664095167 ], [ 28.589949005511368, -20.165807799945501 ], [ 28.589945618807228, -20.16580988048953 ], [ 28.589942194293762, -20.165811905097808 ], [ 28.589938733006971, -20.165813873157852 ], [ 28.589935235993966, -20.16581578407429 ], [ 28.589931704312693, -20.165817637268994 ], [ 28.589928139031564, -20.16581943218133 ], [ 28.58992454122917, -20.165821168268309 ], [ 28.589920911993939, -20.165822845004708 ], [ 28.589917252423803, -20.165824461883272 ], [ 28.589913563625871, -20.165826018414855 ], [ 28.589909846716093, -20.165827514128576 ], [ 28.589906102818929, -20.165828948571935 ], [ 28.589902333067013, -20.165830321310974 ], [ 28.589898538600767, -20.165831631930413 ], [ 28.589894720568125, -20.165832880033744 ], [ 28.589893061159444, -20.165833392148301 ], [ 28.589890880124141, -20.165834065243395 ], [ 28.589887018430641, -20.165835187200813 ], [ 28.589883136655885, -20.16583624556656 ], [ 28.589879235974212, -20.165837240020473 ], [ 28.589875317565664, -20.165838170261686 ], [ 28.589871382615666, -20.165839036008787 ], [ 28.589867432314644, -20.165839836999876 ], [ 28.589863467857658, -20.165840572992611 ], [ 28.589859490444056, -20.165841243764344 ], [ 28.589855501277114, -20.165841849112145 ], [ 28.58985150156364, -20.165842388852912 ], [ 28.589847492513663, -20.165842862823308 ], [ 28.589843475340015, -20.165843270879982 ], [ 28.589839451257991, -20.165843612899476 ], [ 28.589835421484992, -20.165843888778316 ], [ 28.5898313872401, -20.165844098433038 ], [ 28.58982734974381, -20.165844241800222 ], [ 28.58982331021754, -20.165844318836498 ], [ 28.589819269883357, -20.165844329518571 ], [ 28.58981522996357, -20.165844273843181 ], [ 28.58981119168034, -20.165844151827184 ], [ 28.589807156255375, -20.165843963507495 ], [ 28.589803124909473, -20.165843708941072 ] ] ] ] } }
]
}
