{
"type": "FeatureCollection",
"name": "HALLS",
"crs": { "type": "name", "properties": { "name": "urn:ogc:def:crs:OGC:1.3:CRS84" } },
"features": [
{ "type": "Feature", "properties": { "id": null, "Number": 5, "Capacity": null }, "geometry": { "type": "MultiPolygon", "coordinates": [ [ [ [ 28.588538506306687, -20.170048926257405 ], [ 28.588780424692249, -20.169909746688734 ], [ 28.589006567618565, -20.170261822338027 ], [ 28.588757013235611, -20.170402978986328 ], [ 28.588538506306687, -20.170048926257405 ] ] ] ] } },
{ "type": "Feature", "properties": { "id": null, "Number": 4, "Capacity": null }, "geometry": { "type": "MultiPolygon", "coordinates": [ [ [ [ 28.587755255341726, -20.170271891410803 ], [ 28.587416772004882, -20.169649225074465 ], [ 28.588063099060481, -20.169325008320758 ], [ 28.588421264339953, -20.169932249750556 ], [ 28.588430252649516, -20.169930140477206 ], [ 28.587755255341726, -20.170271891410803 ] ] ] ] } },
{ "type": "Feature", "properties": { "id": null, "Number": 3, "Capacity": null }, "geometry": { "type": "MultiPolygon", "coordinates": [ [ [ [ 28.588212475032634, -20.16880078970231 ], [ 28.588628772943096, -20.168558789261379 ], [ 28.588949977422274, -20.169062625822182 ], [ 28.588542132261264, -20.169296691072351 ], [ 28.588212475032634, -20.16880078970231 ] ] ] ] } },
{ "type": "Feature", "properties": { "id": null, "Number": 1, "Capacity": null }, "geometry": { "type": "MultiPolygon", "coordinates": [ [ [ [ 28.588012829508436, -20.165621604776526 ], [ 28.588522441228424, -20.165506252489976 ], [ 28.588638097788998, -20.165662317327904 ], [ 28.588620026451451, -20.166412104916059 ], [ 28.588359799190176, -20.16647317342969 ], [ 28.587976686833262, -20.165804811173999 ], [ 28.588012829508436, -20.165621604776526 ] ] ] ] } },
{ "type": "Feature", "properties": { "id": null, "Number": 2, "Capacity": null }, "geometry": { "type": "MultiPolygon", "coordinates": [ [ [ [ 28.588830989230431, -20.165913783402637 ], [ 28.589137705961168, -20.165944838359238 ], [ 28.589073272210602, -20.166511111937243 ], [ 28.58876738598892, -20.166480972779393 ], [ 28.588830989230431, -20.165913783402637 ] ] ] ] } },
{ "type": "Feature", "properties": { "id": null, "Number": 2, "Capacity": null }, "geometry": { "type": "MultiPolygon", "coordinates": [ [ [ [ 28.588765234462354, -20.166495686544291 ], [ 28.58906983835999, -20.166523050944917 ], [ 28.58901369143431, -20.167018804053651 ], [ 28.588712623453496, -20.166989506520405 ], [ 28.588765234462354, -20.166495686544291 ] ] ] ] } }
]
}
