{
"type": "FeatureCollection",
"name": "LIFE ASSURANCE POLICY PROVIDERS",
"crs": { "type": "name", "properties": { "name": "urn:ogc:def:crs:OGC:1.3:CRS84" } },
"features": [
{ "type": "Feature", "properties": { "Name": "Moonlight Funeral", "Proximity": "Ministry Of Energy" }, "geometry": { "type": "Point", "coordinates": [ 28.58763361748753, -20.167103270627678 ] } },
{ "type": "Feature", "properties": { "Name": "Nyaradzo Funeral", "Proximity": "Powertel Telecommunications" }, "geometry": { "type": "Point", "coordinates": [ 28.588335076695586, -20.167304034559788 ] } }
]
}
