{
"type": "FeatureCollection",
"name": "ROADS",
"crs": { "type": "name", "properties": { "name": "urn:ogc:def:crs:EPSG::20935" } },
"features": [
{ "type": "Feature", "properties": { "id": null, "Name": null, "Width (m)": null }, "geometry": { "type": "MultiLineString", "coordinates": [ ] } },
{ "type": "Feature", "properties": { "id": null, "Name": null, "Width (m)": null }, "geometry": { "type": "MultiLineString", "coordinates": [ ] } },
{ "type": "Feature", "properties": { "id": null, "Name": null, "Width (m)": null }, "geometry": { "type": "MultiLineString", "coordinates": [ [ [ 666019.706775839789771, 7769464.627367007546127 ], [ 666020.142087144544348, 7769464.623589092865586 ], [ 666020.577267310232855, 7769464.612256486900151 ], [ 666021.012185237719677, 7769464.593372602947056 ], [ 666021.446709906333126, 7769464.566943131387234 ], [ 666021.880710414261557, 7769464.532976033166051 ], [ 666022.314056017319672, 7769464.491481540724635 ], [ 666022.746616168878973, 7769464.442472154274583 ], [ 666023.17826055875048, 7769464.385962639003992 ], [ 666023.608859152765945, 7769464.321970018558204 ], [ 666024.038282231544144, 7769464.250513570383191 ], [ 666024.466400430188514, 7769464.171614821068943 ], [ 666024.893084776587784, 7769464.085297537967563 ], [ 666025.318206730647944, 7769463.991587727330625 ], [ 666025.741638223174959, 7769463.890513616614044 ], [ 666026.163251693942584, 7769463.782105656340718 ], [ 666026.582920130691491, 7769463.66639650426805 ], [ 666027.000517106731422, 7769463.543421017937362 ], [ 666027.415916819823906, 7769463.41321624442935 ], [ 666027.828994129435159, 7769463.275821408256888 ], [ 666028.239624594571069, 7769463.131277900189161 ], [ 666028.647684511612169, 7769462.979629265144467 ], [ 666029.053050951217301, 7769462.820921185426414 ], [ 666029.455601795343682, 7769462.655201475135982 ], [ 666029.855215774266981, 7769462.482520055957139 ], [ 666030.251772503019311, 7769462.302928949706256 ], [ 666030.645152517594397, 7769462.116482257843018 ], [ 666031.035237311036326, 7769461.92323614936322 ], [ 666031.421909369062632, 7769461.723248839378357 ], [ 666031.805052205338143, 7769461.516580574214458 ], [ 666032.184550397098064, 7769461.303293614648283 ], [ 666032.560289619024843, 7769461.083452213555574 ], [ 666032.932156678522006, 7769460.857122598215938 ], [ 666033.30003954959102, 7769460.624372952617705 ], [ 666033.66382740624249, 7769460.385273391380906 ], [ 666034.023410656256601, 7769460.13989594578743 ], [ 666034.378680973895825, 7769459.888314534910023 ], [ 666034.729531332966872, 7769459.630604949779809 ], [ 666035.075856038602069, 7769459.366844826377928 ], [ 666035.417550759389997, 7769459.097113622352481 ], [ 666035.754512558691204, 7769458.821492595598102 ], [ 666036.086639925721101, 7769458.540064777247608 ], [ 666036.413832806050777, 7769458.252914949320257 ], [ 666036.735992631642148, 7769457.960129615850747 ], [ 666037.053022350883111, 7769457.661796980537474 ], [ 666037.364826457691379, 7769457.358006915077567 ], [ 666037.671311019803397, 7769457.048850938677788 ], [ 666037.972383707994595, 7769456.734422185458243 ], [ 666038.267953823087737, 7769456.414815377444029 ], [ 666038.557932323543355, 7769456.090126797556877 ], [ 666038.842231852584518, 7769455.760454258881509 ], [ 666039.120766763808206, 7769455.425897077657282 ], [ 666039.393453147960827, 7769455.086556038819253 ], [ 666039.660208857152611, 7769454.742533369921148 ], [ 666039.920953530468978, 7769454.393932710401714 ], [ 666040.175608617835678, 7769454.040859076194465 ], [ 666040.424097403418273, 7769453.683418832719326 ], [ 666040.666345029138029, 7769453.321719658561051 ], [ 666040.902278517372906, 7769452.955870517529547 ], [ 666041.131826792145148, 7769452.585981623269618 ], [ 666041.35492070147302, 7769452.212164405733347 ], [ 666041.571493037510663, 7769451.83453147765249 ], [ 666041.78147855727002, 7769451.453196603804827 ], [ 666041.984814001712948, 7769451.068274661898613 ], [ 666042.181438115541823, 7769450.679881609976292 ], [ 666042.371291665011086, 7769450.288134453818202 ], [ 666042.554317456204444, 7769449.893151207827032 ], [ 666042.730460352031514, 7769449.495050863362849 ], [ 666042.899667288875207, 7769449.093953346833587 ], [ 666043.061887292424217, 7769448.689979492686689 ], [ 666043.217071493621916, 7769448.283250997774303 ], [ 666043.365173142636195, 7769447.873890391550958 ], [ 666043.50614762341138, 7769447.46202099416405 ], [ 666043.639952466823161, 7769447.047766882926226 ], [ 666043.766547363833524, 7769446.631252854131162 ], [ 666043.885894177248701, 7769446.212604382075369 ], [ 666043.997956953477114, 7769445.791947587393224 ], [ 666044.102701933356002, 7769445.369409194216132 ], [ 666044.200097561930306, 7769444.945116492919624 ], [ 666044.290114498580806, 7769444.519197303801775 ], [ 666044.372725625406019, 7769444.091779936105013 ], [ 666044.447906055487692, 7769443.662993150763214 ], [ 666044.515633140457794, 7769443.232966120354831 ], [ 666044.575886477483436, 7769442.801828392781317 ], [ 666044.62864791485481, 7769442.369709850288928 ], [ 666044.673901558155194, 7769441.936740667559206 ], [ 666044.711633774568327, 7769441.503051280975342 ], [ 666044.741833196952939, 7769441.068772339262068 ], [ 666044.764490727917291, 7769440.634034669958055 ], [ 666044.779599541565403, 7769440.198969239369035 ], [ 666044.787155086523853, 7769439.763707113452256 ], [ 666044.787155086523853, 7769439.328379415906966 ], [ 666044.779599541565403, 7769438.893117289990187 ], [ 666044.764490727917291, 7769438.458051859401166 ], [ 666044.741833196952939, 7769438.023314190097153 ], [ 666044.711633774568327, 7769437.58903524838388 ], [ 666044.673901558155194, 7769437.155345861800015 ], [ 666044.62864791485481, 7769436.722376679070294 ], [ 666044.575886477483436, 7769436.290258136577904 ], [ 666044.515633140457794, 7769435.85912040900439 ], [ 666044.447906055487692, 7769435.429093378596008 ], [ 666044.372725625406019, 7769435.000306593254209 ], [ 666044.290114498580806, 7769434.572889225557446 ], [ 666044.200097561930306, 7769434.146970036439598 ], [ 666044.102701933356002, 7769433.722677335143089 ], [ 666043.997956953477114, 7769433.300138941965997 ], [ 666043.885894177248701, 7769432.879482147283852 ], [ 666043.766547363833524, 7769432.460833675228059 ], [ 666043.639952466823161, 7769432.044319646432996 ], [ 666043.50614762341138, 7769431.630065535195172 ], [ 666043.365173142636195, 7769431.218196137808263 ], [ 666043.217071493621916, 7769430.808835531584918 ], [ 666043.061887292424217, 7769430.402107036672533 ], [ 666042.899667288875207, 7769429.998133182525635 ], [ 666042.730460352031514, 7769429.597035665996373 ], [ 666042.554317456204444, 7769429.19893532153219 ], [ 666042.371291665011086, 7769428.803952075541019 ], [ 666042.181438115541823, 7769428.41220491938293 ], [ 666041.984814001712948, 7769428.023811867460608 ], [ 666041.78147855727002, 7769427.638889925554395 ], [ 666041.571493037510663, 7769427.257555051706731 ], [ 666041.35492070147302, 7769426.879922123625875 ], [ 666041.131826792145148, 7769426.506104906089604 ], [ 666040.902278517372906, 7769426.136216011829674 ], [ 666040.666345029138029, 7769425.770366870798171 ], [ 666040.424097403418273, 7769425.408667696639895 ], [ 666040.175608617835678, 7769425.051227453164756 ], [ 666039.920953530468978, 7769424.698153818957508 ], [ 666039.660208857152611, 7769424.349553159438074 ], [ 666039.393453147960827, 7769424.005530490539968 ], [ 666039.120766763808206, 7769423.666189451701939 ], [ 666038.842231852584518, 7769423.331632270477712 ], [ 666038.557932323543355, 7769423.001959731802344 ], [ 666038.267953823087737, 7769422.677271151915193 ], [ 666037.972383707994595, 7769422.357664343900979 ], [ 666037.671311019803397, 7769422.043235590681434 ], [ 666037.364826457691379, 7769421.734079614281654 ], [ 666037.053022350883111, 7769421.430289548821747 ], [ 666036.735992631642148, 7769421.131956913508475 ], [ 666036.413832806050777, 7769420.839171580038965 ], [ 666036.086639925721101, 7769420.552021752111614 ], [ 666035.754512558691204, 7769420.27059393376112 ], [ 666035.417550759389997, 7769419.994972907006741 ], [ 666035.075856038602069, 7769419.725241702981293 ], [ 666034.729531332966872, 7769419.461481579579413 ], [ 666034.378680973895825, 7769419.203771994449198 ], [ 666034.023410656256601, 7769418.952190583571792 ], [ 666033.66382740624249, 7769418.706813137978315 ], [ 666033.30003954959102, 7769418.467713576741517 ], [ 666032.932156678522006, 7769418.234963931143284 ], [ 666032.560289619024843, 7769418.008634315803647 ], [ 666032.184550397098064, 7769417.788792914710939 ], [ 666031.805052205338143, 7769417.575505955144763 ], [ 666031.421909369062632, 7769417.368837689980865 ], [ 666031.035237311036326, 7769417.168850379996002 ], [ 666030.645152517594397, 7769416.975604271516204 ], [ 666030.251772503019311, 7769416.789157579652965 ], [ 666029.855215774266981, 7769416.609566473402083 ], [ 666029.455601795343682, 7769416.436885054223239 ], [ 666029.053050951217301, 7769416.271165343932807 ], [ 666028.647684511612169, 7769416.112457264214754 ], [ 666028.239624594571069, 7769415.96080862917006 ], [ 666027.828994129435159, 7769415.816265121102333 ], [ 666027.415916819823906, 7769415.678870284929872 ], [ 666027.000517106731422, 7769415.548665511421859 ], [ 666026.582920130691491, 7769415.425690025091171 ], [ 666026.163251693942584, 7769415.309980873018503 ], [ 666025.741638223174959, 7769415.201572912745178 ], [ 666025.318206730647944, 7769415.100498802028596 ], [ 666024.893084776587784, 7769415.006788991391659 ], [ 666024.466400430188514, 7769414.920471708290279 ], [ 666024.038282231544144, 7769414.84157295897603 ], [ 666023.608859152765945, 7769414.770116510801017 ], [ 666023.17826055875048, 7769414.706123890355229 ], [ 666022.746616168878973, 7769414.649614375084639 ], [ 666022.314056017319672, 7769414.600604988634586 ], [ 666021.880710414261557, 7769414.559110496193171 ], [ 666021.446709906333126, 7769414.525143397971988 ], [ 666021.012185237719677, 7769414.498713926412165 ], [ 666020.577267310232855, 7769414.479830042459071 ], [ 666020.142087144544348, 7769414.468497436493635 ], [ 666019.706775839789771, 7769414.464719521813095 ], [ 666019.271464535035193, 7769414.468497436493635 ], [ 666018.836284369346686, 7769414.479830042459071 ], [ 666018.401366441859864, 7769414.498713926412165 ], [ 666017.966841773246415, 7769414.525143397971988 ], [ 666017.532841265317984, 7769414.559110496193171 ], [ 666017.099495662259869, 7769414.600604988634586 ], [ 666016.666935510700569, 7769414.649614375084639 ], [ 666016.235291120829061, 7769414.706123890355229 ], [ 666015.804692526813596, 7769414.770116510801017 ], [ 666015.375269448035397, 7769414.84157295897603 ], [ 666014.947151249391027, 7769414.920471708290279 ], [ 666014.520466902991757, 7769415.006788991391659 ], [ 666014.095344948931597, 7769415.100498802028596 ], [ 666013.671913456404582, 7769415.201572912745178 ], [ 666013.250299985636957, 7769415.309980873018503 ], [ 666012.83063154888805, 7769415.425690025091171 ], [ 666012.413034572848119, 7769415.548665511421859 ], [ 666011.997634859755635, 7769415.678870284929872 ], [ 666011.584557550144382, 7769415.816265121102333 ], [ 666011.173927085008472, 7769415.96080862917006 ], [ 666010.765867167967372, 7769416.112457264214754 ], [ 666010.36050072836224, 7769416.271165343932807 ], [ 666009.957949884235859, 7769416.436885054223239 ], [ 666009.55833590531256, 7769416.609566473402083 ], [ 666009.161779176560231, 7769416.789157579652965 ], [ 666008.768399161985144, 7769416.975604271516204 ], [ 666008.378314368543215, 7769417.168850379996002 ], [ 666007.991642310516909, 7769417.368837689980865 ], [ 666007.608499474241398, 7769417.575505955144763 ], [ 666007.229001282481477, 7769417.788792914710939 ], [ 666006.853262060554698, 7769418.008634315803647 ], [ 666006.481395001057535, 7769418.234963931143284 ], [ 666006.113512129988521, 7769418.467713576741517 ], [ 666005.749724273337051, 7769418.706813137978315 ], [ 666005.39014102332294, 7769418.952190583571792 ], [ 666005.034870705683716, 7769419.203771994449198 ], [ 666004.68402034661267, 7769419.461481579579413 ], [ 666004.337695640977472, 7769419.725241702981293 ], [ 666003.996000920189545, 7769419.994972907006741 ], [ 666003.659039120888337, 7769420.27059393376112 ], [ 666003.32691175385844, 7769420.552021752111614 ], [ 666002.999718873528764, 7769420.839171580038965 ], [ 666002.677559047937393, 7769421.131956913508475 ], [ 666002.36052932869643, 7769421.430289548821747 ], [ 666002.048725221888162, 7769421.734079614281654 ], [ 666001.742240659776144, 7769422.043235590681434 ], [ 666001.441167971584946, 7769422.357664343900979 ], [ 666001.145597856491804, 7769422.677271151915193 ], [ 666000.855619356036186, 7769423.001959731802344 ], [ 666000.571319826995023, 7769423.331632270477712 ], [ 666000.292784915771335, 7769423.666189451701939 ], [ 666000.020098531618714, 7769424.005530490539968 ], [ 665999.75334282242693, 7769424.349553159438074 ], [ 665999.492598149110563, 7769424.698153818957508 ], [ 665999.237943061743863, 7769425.051227453164756 ], [ 665998.989454276161268, 7769425.408667696639895 ], [ 665998.747206650441512, 7769425.770366870798171 ], [ 665998.511273162206635, 7769426.136216011829674 ], [ 665998.281724887434393, 7769426.506104906089604 ], [ 665998.058630978106521, 7769426.879922123625875 ], [ 665997.842058642068878, 7769427.257555051706731 ], [ 665997.632073122309521, 7769427.638889925554395 ], [ 665997.428737677866593, 7769428.023811867460608 ], [ 665997.232113564037718, 7769428.41220491938293 ], [ 665997.042260014568456, 7769428.803952075541019 ], [ 665996.859234223375097, 7769429.19893532153219 ], [ 665996.683091327548027, 7769429.597035665996373 ], [ 665996.513884390704334, 7769429.998133182525635 ], [ 665996.351664387155324, 7769430.402107036672533 ], [ 665996.196480185957626, 7769430.808835531584918 ], [ 665996.048378536943346, 7769431.218196137808263 ], [ 665995.907404056168161, 7769431.630065535195172 ], [ 665995.77359921275638, 7769432.044319646432996 ], [ 665995.647004315746017, 7769432.460833675228059 ], [ 665995.52765750233084, 7769432.879482147283852 ], [ 665995.415594726102427, 7769433.300138941965997 ], [ 665995.310849746223539, 7769433.722677335143089 ], [ 665995.213454117649235, 7769434.146970036439598 ], [ 665995.123437180998735, 7769434.572889225557446 ], [ 665995.040826054173522, 7769435.000306593254209 ], [ 665994.965645624091849, 7769435.429093378596008 ], [ 665994.897918539121747, 7769435.85912040900439 ], [ 665994.837665202096105, 7769436.290258136577904 ], [ 665994.784903764724731, 7769436.722376679070294 ], [ 665994.739650121424347, 7769437.155345861800015 ], [ 665994.701917905011214, 7769437.58903524838388 ], [ 665994.671718482626602, 7769438.023314190097153 ], [ 665994.64906095166225, 7769438.458051859401166 ], [ 665994.633952138014138, 7769438.893117289990187 ], [ 665994.626396593055688, 7769439.328379415906966 ], [ 665994.626396593055688, 7769439.763707113452256 ], [ 665994.633952138014138, 7769440.198969239369035 ], [ 665994.64906095166225, 7769440.634034669958055 ], [ 665994.671718482626602, 7769441.068772339262068 ], [ 665994.701917905011214, 7769441.503051280975342 ], [ 665994.739650121424347, 7769441.936740667559206 ], [ 665994.784903764724731, 7769442.369709850288928 ], [ 665994.837665202096105, 7769442.801828392781317 ], [ 665994.897918539121747, 7769443.232966120354831 ], [ 665994.965645624091849, 7769443.662993150763214 ], [ 665995.040826054173522, 7769444.091779936105013 ], [ 665995.123437180998735, 7769444.519197303801775 ], [ 665995.213454117649235, 7769444.945116492919624 ], [ 665995.310849746223539, 7769445.369409194216132 ], [ 665995.415594726102427, 7769445.791947587393224 ], [ 665995.52765750233084, 7769446.212604382075369 ], [ 665995.647004315746017, 7769446.631252854131162 ], [ 665995.77359921275638, 7769447.047766882926226 ], [ 665995.907404056168161, 7769447.46202099416405 ], [ 665996.048378536943346, 7769447.873890391550958 ], [ 665996.196480185957626, 7769448.283250997774303 ], [ 665996.351664387155324, 7769448.689979492686689 ], [ 665996.513884390704334, 7769449.093953346833587 ], [ 665996.683091327548027, 7769449.495050863362849 ], [ 665996.859234223375097, 7769449.893151207827032 ], [ 665997.042260014568456, 7769450.288134453818202 ], [ 665997.232113564037718, 7769450.679881609976292 ], [ 665997.428737677866593, 7769451.068274661898613 ], [ 665997.632073122309521, 7769451.453196603804827 ], [ 665997.842058642068878, 7769451.83453147765249 ], [ 665998.058630978106521, 7769452.212164405733347 ], [ 665998.281724887434393, 7769452.585981623269618 ], [ 665998.511273162206635, 7769452.955870517529547 ], [ 665998.747206650441512, 7769453.321719658561051 ], [ 665998.989454276161268, 7769453.683418832719326 ], [ 665999.237943061743863, 7769454.040859076194465 ], [ 665999.492598149110563, 7769454.393932710401714 ], [ 665999.75334282242693, 7769454.742533369921148 ], [ 666000.020098531618714, 7769455.086556038819253 ], [ 666000.292784915771335, 7769455.425897077657282 ], [ 666000.571319826995023, 7769455.760454258881509 ], [ 666000.855619356036186, 7769456.090126797556877 ], [ 666001.145597856491804, 7769456.414815377444029 ], [ 666001.441167971584946, 7769456.734422185458243 ], [ 666001.742240659776144, 7769457.048850938677788 ], [ 666002.048725221888162, 7769457.358006915077567 ], [ 666002.36052932869643, 7769457.661796980537474 ], [ 666002.677559047937393, 7769457.960129615850747 ], [ 666002.999718873528764, 7769458.252914949320257 ], [ 666003.32691175385844, 7769458.540064777247608 ], [ 666003.659039120888337, 7769458.821492595598102 ], [ 666003.996000920189545, 7769459.097113622352481 ], [ 666004.337695640977472, 7769459.366844826377928 ], [ 666004.68402034661267, 7769459.630604949779809 ], [ 666005.034870705683716, 7769459.888314534910023 ], [ 666005.39014102332294, 7769460.13989594578743 ], [ 666005.749724273337051, 7769460.385273391380906 ], [ 666006.113512129988521, 7769460.624372952617705 ], [ 666006.481395001057535, 7769460.857122598215938 ], [ 666006.853262060554698, 7769461.083452213555574 ], [ 666007.229001282481477, 7769461.303293614648283 ], [ 666007.608499474241398, 7769461.516580574214458 ], [ 666007.991642310516909, 7769461.723248839378357 ], [ 666008.378314368543215, 7769461.92323614936322 ], [ 666008.768399161985144, 7769462.116482257843018 ], [ 666009.161779176560231, 7769462.302928949706256 ], [ 666009.55833590531256, 7769462.482520055957139 ], [ 666009.957949884235859, 7769462.655201475135982 ], [ 666010.36050072836224, 7769462.820921185426414 ], [ 666010.765867167967372, 7769462.979629265144467 ], [ 666011.173927085008472, 7769463.131277900189161 ], [ 666011.584557550144382, 7769463.275821408256888 ], [ 666011.997634859755635, 7769463.41321624442935 ], [ 666012.413034572848119, 7769463.543421017937362 ], [ 666012.83063154888805, 7769463.66639650426805 ], [ 666013.250299985636957, 7769463.782105656340718 ], [ 666013.671913456404582, 7769463.890513616614044 ], [ 666014.095344948931597, 7769463.991587727330625 ], [ 666014.520466902991757, 7769464.085297537967563 ], [ 666014.947151249391027, 7769464.171614821068943 ], [ 666015.375269448035397, 7769464.250513570383191 ], [ 666015.804692526813596, 7769464.321970018558204 ], [ 666016.235291120829061, 7769464.385962639003992 ], [ 666016.666935510700569, 7769464.442472154274583 ], [ 666017.099495662259869, 7769464.491481540724635 ], [ 666017.532841265317984, 7769464.532976033166051 ], [ 666017.966841773246415, 7769464.566943131387234 ], [ 666018.401366441859864, 7769464.593372602947056 ], [ 666018.836284369346686, 7769464.612256486900151 ], [ 666019.271464535035193, 7769464.623589092865586 ], [ 666019.706775839789771, 7769464.627367007546127 ] ] ] } },
{ "type": "Feature", "properties": { "id": null, "Name": null, "Width (m)": null }, "geometry": { "type": "MultiLineString", "coordinates": [ ] } },
{ "type": "Feature", "properties": { "id": null, "Name": null, "Width (m)": null }, "geometry": { "type": "MultiLineString", "coordinates": [ [ [ 665912.057819385780022, 7769443.406987133435905 ], [ 665912.171713391318917, 7769445.269137663766742 ], [ 665912.318089058157057, 7769447.129016854800284 ], [ 665912.496901798876934, 7769448.986058169975877 ], [ 665912.708097145310603, 7769450.839695936068892 ], [ 665912.951610765303485, 7769452.689365516416728 ], [ 665913.227368482272141, 7769454.534503485076129 ], [ 665913.535286297905259, 7769456.37454779446125 ], [ 665913.875270417192951, 7769458.208937949500978 ], [ 665914.247217277763411, 7769460.037115176208317 ], [ 665914.65101358119864, 7769461.858522595837712 ], [ 665915.0865363269113, 7769463.67260538879782 ], [ 665915.553652850678191, 7769465.478810967877507 ], [ 665916.052220864221454, 7769467.276589145883918 ], [ 665916.582088498864323, 7769469.065392301417887 ], [ 665917.14309435186442, 7769470.844675549305975 ], [ 665917.73506753530819, 7769472.61389690078795 ], [ 665918.35782772838138, 7769474.372517434880137 ], [ 665919.011185232549906, 7769476.120001458562911 ], [ 665919.694941028603353, 7769477.85581667162478 ], [ 665920.40888683788944, 7769479.579434326849878 ], [ 665921.152805185643956, 7769481.290329394862056 ], [ 665921.926469467114657, 7769482.987980719655752 ], [ 665922.729644016711973, 7769484.671871180646122 ], [ 665923.562084179604426, 7769486.341487848199904 ], [ 665924.423536386573687, 7769487.996322141028941 ], [ 665925.31373823073227, 7769489.635869979858398 ], [ 665926.232418548199348, 7769491.259631943888962 ], [ 665927.179297500057146, 7769492.867113418877125 ], [ 665928.15408665756695, 7769494.457824750803411 ], [ 665929.156489090644754, 7769496.031281392090023 ], [ 665930.186199457850307, 7769497.58700405433774 ], [ 665931.242904099402949, 7769499.124518848024309 ], [ 665932.326281132758595, 7769500.643357432447374 ], [ 665933.436000550864264, 7769502.143057153560221 ], [ 665934.571724322275259, 7769503.623161189258099 ], [ 665935.733106494764797, 7769505.083218685351312 ], [ 665936.919793299981393, 7769506.522784893400967 ], [ 665938.131423261598684, 7769507.941421308554709 ], [ 665939.367627305327915, 7769509.338695799000561 ], [ 665940.628028871607967, 7769510.714182742871344 ], [ 665941.912244029808789, 7769512.067463153041899 ], [ 665943.219881595461629, 7769513.39812480751425 ], [ 665944.55054324970115, 7769514.705762373283505 ], [ 665945.90382365998812, 7769515.989977532066405 ], [ 665947.279310603975318, 7769517.250379097647965 ], [ 665948.676585095119663, 7769518.486583141610026 ], [ 665950.095221509924158, 7769519.698213103227317 ], [ 665951.534787718090229, 7769520.884899908676744 ], [ 665952.994845213834196, 7769522.046282080933452 ], [ 665954.474949249299243, 7769523.182005852460861 ], [ 665955.974648970761336, 7769524.291725270450115 ], [ 665957.493487554951571, 7769525.375102303922176 ], [ 665959.031002348987386, 7769526.431806945241988 ], [ 665960.586725011002272, 7769527.461517312563956 ], [ 665962.160181652754545, 7769528.463919745758176 ], [ 665963.750892984098755, 7769529.43870890326798 ], [ 665965.358374458970502, 7769530.385587855242193 ], [ 665966.982136422884651, 7769531.304268172942102 ], [ 665968.621684262296185, 7769532.1944700172171 ], [ 665970.276518555125222, 7769533.055922224186361 ], [ 665971.946135222562589, 7769533.888362386263907 ], [ 665973.630025683436543, 7769534.691536935977638 ], [ 665975.327677008346654, 7769535.46520121768117 ], [ 665977.038572076242417, 7769536.209119565784931 ], [ 665978.762189731816761, 7769536.923065374605358 ], [ 665980.498004944529384, 7769537.60682117100805 ], [ 665982.245488968212157, 7769538.260178674943745 ], [ 665984.004109502420761, 7769538.882938868366182 ], [ 665985.773330854135565, 7769539.474912052042782 ], [ 665987.552614101441577, 7769540.035917904227972 ], [ 665989.341417257441208, 7769540.565785539336503 ], [ 665991.139195435447618, 7769541.064353552646935 ], [ 665992.945401014760137, 7769541.531470076180995 ], [ 665994.759483807487413, 7769541.966992822475731 ], [ 665996.580891226767562, 7769542.370789125561714 ], [ 665998.409068453940563, 7769542.742735986597836 ], [ 666000.24345860874746, 7769543.082720105536282 ], [ 666002.083502918016165, 7769543.3906379211694 ], [ 666003.928640886559151, 7769543.666395638138056 ], [ 666005.778310467372648, 7769543.909909258596599 ], [ 666007.631948233232833, 7769544.121104604564607 ], [ 666009.48898954805918, 7769544.299917344935238 ], [ 666011.348868739209138, 7769544.446293012239039 ], [ 666013.211019269307144, 7769544.560187017545104 ], [ 666015.07487390935421, 7769544.641564669087529 ], [ 666016.939864911139011, 7769544.690401176922023 ], [ 666018.805424180347472, 7769544.706681665964425 ], [ 666020.670983449555933, 7769544.690401176922023 ], [ 666022.535974451340735, 7769544.641564669087529 ], [ 666024.399829091387801, 7769544.560187017545104 ], [ 666026.261979621485807, 7769544.446293012239039 ], [ 666028.121858812635764, 7769544.299917344935238 ], [ 666029.978900127462111, 7769544.121104604564607 ], [ 666031.832537893322296, 7769543.909909258596599 ], [ 666033.682207474135794, 7769543.666395638138056 ], [ 666035.527345442678779, 7769543.3906379211694 ], [ 666037.367389751947485, 7769543.082720105536282 ], [ 666039.201779906754382, 7769542.742735986597836 ], [ 666041.029957133927383, 7769542.370789125561714 ], [ 666042.851364553207532, 7769541.966992822475731 ], [ 666044.665447345934808, 7769541.531470076180995 ], [ 666046.471652925247326, 7769541.064353552646935 ], [ 666048.269431103253737, 7769540.565785539336503 ], [ 666050.058234259253368, 7769540.035917904227972 ], [ 666051.837517506559379, 7769539.474912052042782 ], [ 666053.606738858274184, 7769538.882938868366182 ], [ 666055.365359392482787, 7769538.260178674943745 ], [ 666057.11284341616556, 7769537.60682117100805 ], [ 666058.848658628878184, 7769536.923065374605358 ], [ 666060.572276284452528, 7769536.209119565784931 ], [ 666062.28317135234829, 7769535.46520121768117 ], [ 666063.980822677258402, 7769534.691536935977638 ], [ 666065.664713138132356, 7769533.888362386263907 ], [ 666067.334329805569723, 7769533.055922224186361 ], [ 666068.98916409839876, 7769532.1944700172171 ], [ 666070.628711937810294, 7769531.304268172942102 ], [ 666072.252473901724443, 7769530.385587855242193 ], [ 666073.85995537659619, 7769529.43870890326798 ], [ 666075.4506667079404, 7769528.463919745758176 ], [ 666077.024123349692672, 7769527.461517312563956 ], [ 666078.579846011707559, 7769526.431806945241988 ], [ 666080.117360805743374, 7769525.375102303922176 ], [ 666081.636199389933608, 7769524.291725270450115 ], [ 666083.135899111395702, 7769523.182005852460861 ], [ 666084.616003146860749, 7769522.046282080933452 ], [ 666086.076060642604716, 7769520.884899908676744 ], [ 666087.515626850770786, 7769519.698213103227317 ], [ 666088.934263265575282, 7769518.486583141610026 ], [ 666090.331537756719626, 7769517.250379097647965 ], [ 666091.707024700706825, 7769515.989977532066405 ], [ 666093.060305110993795, 7769514.705762373283505 ], [ 666094.390966765233316, 7769513.39812480751425 ], [ 666095.698604330886155, 7769512.067463153041899 ], [ 666096.982819489086978, 7769510.714182742871344 ], [ 666098.24322105536703, 7769509.338695799000561 ], [ 666099.479425099096261, 7769507.941421308554709 ], [ 666100.691055060713552, 7769506.522784893400967 ], [ 666101.877741865930147, 7769505.083218685351312 ], [ 666103.039124038419686, 7769503.623161189258099 ], [ 666104.17484780983068, 7769502.143057153560221 ], [ 666105.28456722793635, 7769500.643357432447374 ], [ 666106.367944261291996, 7769499.124518848024309 ], [ 666107.424648902844638, 7769497.58700405433774 ], [ 666108.45435927005019, 7769496.031281392090023 ], [ 666109.456761703127995, 7769494.457824750803411 ], [ 666110.431550860637799, 7769492.867113418877125 ], [ 666111.378429812495597, 7769491.259631943888962 ], [ 666112.297110129962675, 7769489.635869979858398 ], [ 666113.187311974121258, 7769487.996322141028941 ], [ 666114.048764181090519, 7769486.341487848199904 ], [ 666114.881204343982972, 7769484.671871180646122 ], [ 666115.684378893580288, 7769482.987980719655752 ], [ 666116.458043175050989, 7769481.290329394862056 ], [ 666117.201961522805505, 7769479.579434326849878 ], [ 666117.915907332091592, 7769477.85581667162478 ], [ 666118.599663128145039, 7769476.120001458562911 ], [ 666119.253020632313564, 7769474.372517434880137 ], [ 666119.875780825386755, 7769472.61389690078795 ], [ 666120.467754008830525, 7769470.844675549305975 ], [ 666121.028759861830622, 7769469.065392301417887 ], [ 666121.558627496473491, 7769467.276589145883918 ], [ 666122.057195510016754, 7769465.478810967877507 ], [ 666122.524312033783644, 7769463.67260538879782 ], [ 666122.959834779496305, 7769461.858522595837712 ], [ 666123.363631082931533, 7769460.037115176208317 ], [ 666123.735577943501994, 7769458.208937949500978 ], [ 666124.075562062789686, 7769456.37454779446125 ], [ 666124.383479878422804, 7769454.534503485076129 ], [ 666124.65923759539146, 7769452.689365516416728 ], [ 666124.902751215384342, 7769450.839695936068892 ], [ 666125.113946561818011, 7769448.986058169975877 ], [ 666125.292759302537888, 7769447.129016854800284 ], [ 666125.439134969376028, 7769445.269137663766742 ], [ 666125.553028974914923, 7769443.406987133435905 ], [ 666125.634406625875272, 7769441.543132494203746 ], [ 666125.683243134059012, 7769439.678141492418945 ], [ 666125.699523623101413, 7769437.812582222744823 ], [ 666125.683243134059012, 7769435.9470229530707 ], [ 666125.634406625875272, 7769434.082031951285899 ], [ 666125.553028974914923, 7769432.21817731205374 ], [ 666125.439134969376028, 7769430.356026781722903 ], [ 666125.292759302537888, 7769428.496147590689361 ], [ 666125.113946561818011, 7769426.639106275513768 ], [ 666124.902751215384342, 7769424.785468509420753 ], [ 666124.65923759539146, 7769422.935798929072917 ], [ 666124.383479878422804, 7769421.090660960413516 ], [ 666124.075562062789686, 7769419.250616651028395 ], [ 666123.735577943501994, 7769417.416226495988667 ], [ 666123.363631082931533, 7769415.588049269281328 ], [ 666122.959834779496305, 7769413.766641849651933 ], [ 666122.524312033783644, 7769411.952559056691825 ], [ 666122.057195510016754, 7769410.146353477612138 ], [ 666121.558627496473491, 7769408.348575299605727 ], [ 666121.028759861830622, 7769406.559772144071758 ], [ 666120.467754008830525, 7769404.78048889618367 ], [ 666119.875780825386755, 7769403.011267544701695 ], [ 666119.253020632313564, 7769401.252647010609508 ], [ 666118.599663128145039, 7769399.505162986926734 ], [ 666117.915907332091592, 7769397.769347773864865 ], [ 666117.201961522805505, 7769396.045730118639767 ], [ 666116.458043175050989, 7769394.334835050627589 ], [ 666115.684378893580288, 7769392.637183725833893 ], [ 666114.881204343982972, 7769390.953293264843524 ], [ 666114.048764181090519, 7769389.283676597289741 ], [ 666113.187311974121258, 7769387.628842304460704 ], [ 666112.297110129962675, 7769385.989294465631247 ], [ 666111.378429812495597, 7769384.365532501600683 ], [ 666110.431550860637799, 7769382.75805102661252 ], [ 666109.456761703127995, 7769381.167339694686234 ], [ 666108.45435927005019, 7769379.593883053399622 ], [ 666107.424648902844638, 7769378.038160391151905 ], [ 666106.367944261291996, 7769376.500645597465336 ], [ 666105.28456722793635, 7769374.981807013042271 ], [ 666104.17484780983068, 7769373.482107291929424 ], [ 666103.039124038419686, 7769372.002003256231546 ], [ 666101.877741865930147, 7769370.541945760138333 ], [ 666100.691055060713552, 7769369.102379552088678 ], [ 666099.479425099096261, 7769367.683743136934936 ], [ 666098.24322105536703, 7769366.286468646489084 ], [ 666096.982819489086978, 7769364.910981702618301 ], [ 666095.698604330886155, 7769363.557701292447746 ], [ 666094.390966765233316, 7769362.227039637975395 ] ] ] } },
{ "type": "Feature", "properties": { "id": null, "Name": null, "Width (m)": null }, "geometry": { "type": "MultiLineString", "coordinates": [ [ [ 666083.135899111395702, 7769523.182005852460861 ], [ 666058.313458684133366, 7769490.855236089788377 ], [ 666056.46114005392883, 7769488.573335048742592 ], [ 666054.63136063143611, 7769486.180546573363245 ], [ 666034.378680973895825, 7769459.888314534910023 ] ] ] } },
{ "type": "Feature", "properties": { "id": null, "Name": null, "Width (m)": null }, "geometry": { "type": "MultiLineString", "coordinates": [ [ [ 665925.31373823073227, 7769489.635869979858398 ], [ 665996.683091327548027, 7769449.495050863362849 ] ] ] } },
{ "type": "Feature", "properties": { "id": null, "Name": null, "Width (m)": null }, "geometry": { "type": "MultiLineString", "coordinates": [ [ [ 665912.057819385780022, 7769443.406987133435905 ], [ 665943.207137260120362, 7769438.731799283996224 ], [ 665994.633952138014138, 7769438.893117289990187 ] ] ] } },
{ "type": "Feature", "properties": { "id": null, "Name": null, "Width (m)": null }, "geometry": { "type": "MultiLineString", "coordinates": [ [ [ 665842.924996210611425, 7769359.141417528502643 ], [ 665864.934531432227232, 7769376.689560475759208 ], [ 665898.543686567922123, 7769419.518926312215626 ], [ 665912.057819385780022, 7769443.406987133435905 ] ] ] } },
{ "type": "Feature", "properties": { "id": null, "Name": null, "Width (m)": null }, "geometry": { "type": "MultiLineString", "coordinates": [ [ [ 665943.207137260120362, 7769438.731799283996224 ], [ 665921.075682774186134, 7769417.676670365966856 ], [ 665898.543686567922123, 7769419.518926312215626 ] ] ] } },
{ "type": "Feature", "properties": { "id": null, "Name": null, "Width (m)": null }, "geometry": { "type": "MultiLineString", "coordinates": [ [ [ 665921.075682774186134, 7769417.676670365966856 ], [ 665961.855222998303361, 7769342.276149105280638 ], [ 666001.561105589033104, 7769268.401308016851544 ], [ 666022.110387390479445, 7769231.576523015275598 ], [ 666027.839139925199561, 7769221.157929589040577 ], [ 666001.171717879828066, 7769207.071932664141059 ], [ 665934.828178698546253, 7769170.744425394572318 ] ] ] } },
{ "type": "Feature", "properties": { "id": null, "Name": null, "Width (m)": null }, "geometry": { "type": "MultiLineString", "coordinates": [ [ [ 665993.206597242737189, 7769383.308000000193715 ], [ 665993.410277345450595, 7769383.306652694940567 ], [ 665993.61389608879108, 7769383.30135022290051 ], [ 665993.817392132128589, 7769383.292514543049037 ], [ 665994.020704171503894, 7769383.280148318037391 ], [ 665994.223770958604291, 7769383.264255273155868 ], [ 665994.426531318807974, 7769383.244840195402503 ], [ 665994.628924169926904, 7769383.221908935345709 ], [ 665994.830888540484011, 7769383.195468400605023 ], [ 665995.032363588106818, 7769383.165526555851102 ], [ 665995.233288617688231, 7769383.132092420943081 ], [ 665995.433603100012988, 7769383.095176069065928 ], [ 665995.63324668968562, 7769383.054788620211184 ], [ 665995.832159243407659, 7769383.010942242108285 ], [ 665996.030280838022009, 7769382.963650143705308 ], [ 665996.227551789022982, 7769382.912926571443677 ], [ 665996.423912667669356, 7769382.858786805532873 ], [ 665996.619304319610819, 7769382.801247157156467 ], [ 665996.813667882699519, 7769382.740324958227575 ], [ 665997.006944804103114, 7769382.676038564182818 ], [ 665997.199076858581975, 7769382.608407339081168 ], [ 665997.390006165835075, 7769382.537451659329236 ], [ 665997.579675207613036, 7769382.463192898780107 ], [ 665997.768026845529675, 7769382.385653429664671 ], [ 665997.955004338175058, 7769382.304856609553099 ], [ 665998.140551357879303, 7769382.220826779492199 ], [ 665998.324612008058466, 7769382.133589252829552 ], [ 665998.507130839745514, 7769382.043170311488211 ], [ 665998.68805286870338, 7769381.94959719479084 ], [ 665998.867323591606691, 7769381.852898090146482 ], [ 665999.044889002339914, 7769381.753102129325271 ], [ 665999.220695608993992, 7769381.650239376351237 ], [ 665999.394690449233167, 7769381.544340819120407 ], [ 665999.566821106360294, 7769381.435438359156251 ], [ 665999.737035725614987, 7769381.323564804159105 ], [ 665999.905283029307611, 7769381.208753856830299 ], [ 666000.071512332302518, 7769381.091040103696287 ], [ 666000.235673557617702, 7769380.970459005795419 ], [ 666000.397717251093127, 7769380.847046890296042 ], [ 666000.557594596524723, 7769380.720840934664011 ], [ 666000.715257430332713, 7769380.59187915828079 ], [ 666000.870658255997114, 7769380.460200412198901 ], [ 666001.023750258842483, 7769380.325844364240766 ], [ 666001.174487319076434, 7769380.188851490616798 ], [ 666001.322824026807211, 7769380.049263059161603 ], [ 666001.46871569508221, 7769379.907121123746037 ], [ 666001.61211837362498, 7769379.762468502856791 ], [ 666001.752988861873746, 7769379.615348774939775 ], [ 666001.891284722252749, 7769379.465806258842349 ], [ 666002.026964292512275, 7769379.313886006362736 ], [ 666002.159986698883586, 7769379.159633783623576 ], [ 666002.290311867836863, 7769379.003096058964729 ], [ 666002.417900538537651, 7769378.844319990836084 ], [ 666002.542714274488389, 7769378.683353409171104 ], [ 666002.664715475169942, 7769378.520244807936251 ], [ 666002.783867387333885, 7769378.355043322779238 ], [ 666002.900134115945548, 7769378.187798721715808 ], [ 666003.013480635476299, 7769378.018561386503279 ], [ 666003.123872799915262, 7769377.847382302395999 ], [ 666003.231277353130281, 7769377.674313036724925 ], [ 666003.335661939228885, 7769377.499405726790428 ], [ 666003.436995111987926, 7769377.322713064029813 ], [ 666003.535246344399638, 7769377.144288278184831 ], [ 666003.630386038217694, 7769376.964185120537877 ], [ 666003.722385531989858, 7769376.782457846216857 ], [ 666007.224584081675857, 7769370.173774269409478 ] ], [ [ 665987.62852187466342, 7769358.086483562365174 ], [ 665983.629327098140493, 7769364.790931657887995 ], [ 665983.51306036952883, 7769364.958176258951426 ], [ 665983.399713849998079, 7769365.127413594163954 ], [ 665983.289321685559116, 7769365.298999999649823 ], [ 665983.181917132344097, 7769365.471661943942308 ], [ 665983.077532546245493, 7769365.646569253876805 ], [ 665982.976199373486452, 7769365.823261916637421 ], [ 665982.877948141074739, 7769366.001686702482402 ], [ 665982.782808447256684, 7769366.181789860129356 ], [ 665982.69080895348452, 7769366.363517134450376 ], [ 665982.601977374637499, 7769366.546813777647913 ], [ 665982.516340471687727, 7769366.731624572537839 ], [ 665982.433924043085426, 7769366.917893842794001 ], [ 665982.354752916842699, 7769367.105565475299954 ], [ 665982.278850943548605, 7769367.294582933187485 ], [ 665982.206240989034995, 7769367.484889273531735 ], [ 665982.136944927275181, 7769367.676427167840302 ], [ 665982.070983633748256, 7769367.869138912297785 ], [ 665982.008376979734749, 7769368.062966453842819 ], [ 665981.949143825564533, 7769368.257851400412619 ], [ 665981.893302015494555, 7769368.453735042363405 ], [ 665981.840868372004479, 7769368.650558368302882 ], [ 665981.791858690790832, 7769368.848262086510658 ], [ 665981.74628773634322, 7769369.04678663611412 ], [ 665981.704169237054884, 7769369.246072213165462 ], [ 665981.665515881148167, 7769369.44605877995491 ], [ 665981.630339313065633, 7769369.646686091087759 ], [ 665981.598650129977614, 7769369.847893706522882 ], [ 665981.570457878289744, 7769370.049621012061834 ], [ 665981.545771051081829, 7769370.251807236112654 ], [ 665981.524597085197456, 7769370.454391471110284 ], [ 665981.506942359381355, 7769370.657312686555088 ], [ 665981.492812192300335, 7769370.860509751364589 ], [ 665981.482210840680636, 7769371.063921452499926 ], [ 665981.475141498143785, 7769371.267486511729658 ], [ 665981.471606294391677, 7769371.471143604256213 ], [ 665981.471606294391677, 7769371.674831376411021 ], [ 665981.475141498143785, 7769371.878488468937576 ], [ 665981.482210840680636, 7769372.082053528167307 ], [ 665981.492812192300335, 7769372.285465229302645 ], [ 665981.506942359381355, 7769372.488662294112146 ], [ 665981.524597085197456, 7769372.691583509556949 ], [ 665981.545771051081829, 7769372.894167744554579 ], [ 665981.570457878289744, 7769373.096353968605399 ], [ 665981.598650129977614, 7769373.298081274144351 ], [ 665981.630339313065633, 7769373.499288889579475 ], [ 665981.665515881148167, 7769373.699916200712323 ], [ 665981.704169237054884, 7769373.899902767501771 ], [ 665981.74628773634322, 7769374.099188344553113 ], [ 665981.791858690790832, 7769374.297712894156575 ], [ 665981.840868372004479, 7769374.495416612364352 ], [ 665981.893302015494555, 7769374.692239938303828 ], [ 665981.949143825564533, 7769374.888123580254614 ], [ 665982.008376979734749, 7769375.083008526824415 ], [ 665982.070983633748256, 7769375.276836068369448 ], [ 665982.136944927275181, 7769375.469547812826931 ], [ 665982.206240989034995, 7769375.661085707135499 ], [ 665982.278850943548605, 7769375.851392047479749 ], [ 665982.354752916842699, 7769376.040409505367279 ], [ 665982.433924043085426, 7769376.228081137873232 ], [ 665982.516340471687727, 7769376.414350408129394 ], [ 665982.601977374637499, 7769376.599161203019321 ], [ 665982.69080895348452, 7769376.782457846216857 ], [ 665982.782808447256684, 7769376.964185120537877 ], [ 665982.877948141074739, 7769377.144288278184831 ], [ 665982.976199373486452, 7769377.322713064029813 ], [ 665983.077532546245493, 7769377.499405726790428 ], [ 665983.181917132344097, 7769377.674313036724925 ], [ 665983.289321685559116, 7769377.847382302395999 ], [ 665983.399713849998079, 7769378.018561386503279 ], [ 665983.51306036952883, 7769378.187798721715808 ], [ 665983.629327098140493, 7769378.355043322779238 ], [ 665983.748479010304436, 7769378.520244807936251 ], [ 665983.870480210985988, 7769378.683353409171104 ], [ 665983.995293946936727, 7769378.844319990836084 ], [ 665984.122882617637515, 7769379.003096058964729 ], [ 665984.253207786590792, 7769379.159633783623576 ], [ 665984.386230192962103, 7769379.313886006362736 ], [ 665984.521909763221629, 7769379.465806258842349 ], [ 665984.660205623600632, 7769379.615348774939775 ], [ 665984.801076111849397, 7769379.762468502856791 ], [ 665984.944478790392168, 7769379.907121123746037 ], [ 665985.090370458667167, 7769380.049263059161603 ], [ 665985.238707166397944, 7769380.188851490616798 ], [ 665985.389444226631895, 7769380.325844364240766 ], [ 665985.542536229477264, 7769380.460200412198901 ], [ 665985.697937055141665, 7769380.59187915828079 ], [ 665985.855599888949655, 7769380.720840934664011 ], [ 665986.015477234381251, 7769380.847046890296042 ], [ 665986.177520927856676, 7769380.970459005795419 ], [ 665986.34168215317186, 7769381.091040103696287 ], [ 665986.507911456166767, 7769381.208753856830299 ], [ 665986.676158759859391, 7769381.323564804159105 ], [ 665986.846373379114084, 7769381.435438359156251 ], [ 665987.018504036241211, 7769381.544340819120407 ], [ 665987.192498876480386, 7769381.650239376351237 ], [ 665987.368305483134463, 7769381.753102129325271 ], [ 665987.545870893867686, 7769381.852898090146482 ], [ 665987.725141616770998, 7769381.94959719479084 ], [ 665987.906063645728864, 7769382.043170311488211 ], [ 665988.088582477415912, 7769382.133589252829552 ], [ 665988.272643127595074, 7769382.220826779492199 ], [ 665988.45819014729932, 7769382.304856609553099 ], [ 665988.645167639944702, 7769382.385653429664671 ], [ 665988.833519277861342, 7769382.463192898780107 ], [ 665989.023188319639303, 7769382.537451659329236 ], [ 665989.214117626892403, 7769382.608407339081168 ], [ 665989.406249681371264, 7769382.676038564182818 ], [ 665989.599526602774858, 7769382.740324958227575 ], [ 665989.793890165863559, 7769382.801247157156467 ], [ 665989.989281817805022, 7769382.858786805532873 ], [ 665990.185642696451396, 7769382.912926571443677 ], [ 665990.382913647452369, 7769382.963650143705308 ], [ 665990.581035242066719, 7769383.010942242108285 ], [ 665990.779947795788758, 7769383.054788620211184 ], [ 665990.97959138546139, 7769383.095176069065928 ], [ 665991.179905867786147, 7769383.132092420943081 ], [ 665991.380830897367559, 7769383.165526555851102 ], [ 665991.582305944990367, 7769383.195468400605023 ], [ 665991.784270315547474, 7769383.221908935345709 ], [ 665991.986663166666403, 7769383.244840195402503 ], [ 665992.189423526870087, 7769383.264255273155868 ], [ 665992.392490313970484, 7769383.280148318037391 ], [ 665992.595802353345789, 7769383.292514543049037 ], [ 665992.799298396683298, 7769383.30135022290051 ], [ 665993.002917140023783, 7769383.306652694940567 ], [ 665993.206597242737189, 7769383.308420363813639 ] ] ] } },
{ "type": "Feature", "properties": { "id": null, "Name": null, "Width (m)": null }, "geometry": { "type": "MultiLineString", "coordinates": [ [ [ 665961.855222998303361, 7769342.276149105280638 ], [ 665987.62852187466342, 7769358.086483562365174 ], [ 665990.759356140741147, 7769360.05326946079731 ], [ 665990.759356140741147, 7769360.05326946079731 ], [ 666004.744688011123799, 7769368.636805481277406 ], [ 666007.224584081675857, 7769370.173774269409478 ], [ 666052.293521095998585, 7769397.842849832959473 ] ] ] } },
{ "type": "Feature", "properties": { "id": null, "Name": null, "Width (m)": null }, "geometry": { "type": "MultiLineString", "coordinates": [ [ [ 666009.161779176560231, 7769416.789157579652965 ], [ 665993.817392132128589, 7769383.292514543049037 ] ] ] } },
{ "type": "Feature", "properties": { "id": null, "Name": null, "Width (m)": null }, "geometry": { "type": "MultiLineString", "coordinates": [ ] } },
{ "type": "Feature", "properties": { "id": null, "Name": null, "Width (m)": null }, "geometry": { "type": "MultiLineString", "coordinates": [ [ [ 665842.924996210611425, 7769359.141417528502643 ], [ 665845.573082606424578, 7769359.785834810696542 ], [ 665848.231845934060402, 7769360.384677661582828 ], [ 665850.900501903495751, 7769360.937769434414804 ], [ 665853.578263306990266, 7769361.44494697637856 ], [ 665856.264340250636451, 7769361.906060678884387 ], [ 665858.957940387539566, 7769362.320974519476295 ], [ 665861.658269151579589, 7769362.689566107466817 ], [ 665864.364529991988093, 7769363.011726714670658 ], [ 665867.075924608041532, 7769363.287361308000982 ], [ 665869.791653184569441, 7769363.516388580203056 ], [ 665872.510914627928287, 7769363.698740973137319 ], [ 665875.232906802673824, 7769363.834364695474505 ], [ 665877.956826767302118, 7769363.923219740390778 ], [ 665880.681871012086049, 7769363.965279897674918 ], [ 665883.407235695514828, 7769363.960532759316266 ], [ 665886.132116881548427, 7769363.908979726023972 ], [ 665888.855710776639171, 7769363.810636005364358 ], [ 665891.577213967218995, 7769363.665530606172979 ], [ 665894.295823656255379, 7769363.473706333898008 ], [ 665897.010737900272943, 7769363.235219771973789 ], [ 665899.721155846025795, 7769362.95014126971364 ], [ 665902.426277966471389, 7769362.618554920889437 ], [ 665905.125306296744384, 7769362.240558538585901 ], [ 665907.817444669548422, 7769361.816263623535633 ], [ 665910.50189895008225, 7769361.345795337110758 ], [ 665914.086069443961605, 7769360.396983909420669 ], [ 665915.844590261811391, 7769360.266907348297536 ], [ 665918.501251290319487, 7769359.65880589839071 ], [ 665921.147076686029322, 7769359.005167490802705 ], [ 665923.781285975594074, 7769358.306184936314821 ], [ 665926.403102112235501, 7769357.562064422294497 ], [ 665929.011751704965718, 7769356.773025453090668 ], [ 665931.606465246761218, 7769355.93930078111589 ], [ 665934.186477341339923, 7769355.061136340722442 ], [ 665936.751026929239742, 7769354.138791174627841 ], [ 665939.299357512150891, 7769353.172537360340357 ], [ 665941.830717375967652, 7769352.162659926339984 ], [ 665944.344359812792391, 7769351.109456768259406 ], [ 665946.839543341076933, 7769350.013238563202322 ], [ 665949.315531924250536, 7769348.874328676611185 ], [ 665951.771595187950879, 7769347.693063068203628 ], [ 665954.207008635508828, 7769346.469790190458298 ], [ 665956.621053861454129, 7769345.204870888963342 ], [ 665959.013018763624132, 7769343.898678292520344 ], [ 665961.38219775329344, 7769342.551597705110908 ], [ 665961.855222998303361, 7769342.276149105280638 ] ] ] } },
{ "type": "Feature", "properties": { "id": null, "Name": "Thomas Meikle Blvd Rd", "Width (m)": null }, "geometry": { "type": "MultiLineString", "coordinates": [ [ [ 665852.382068321341649, 7769763.979240306653082 ], [ 665918.273645123117603, 7769637.529143245890737 ], [ 665920.767096293158829, 7769632.92005268111825 ], [ 665919.991774643305689, 7769634.502050027251244 ], [ 665934.128292643232271, 7769606.654303338378668 ], [ 665948.529467565240338, 7769578.396294771693647 ], [ 665954.146949468296953, 7769567.641627220436931 ], [ 665991.99660347669851, 7769495.751700475811958 ], [ 665993.14277464535553, 7769493.165390934795141 ], [ 665995.937666848185472, 7769487.869573732838035 ], [ 666009.161779176560231, 7769462.302928949706256 ] ] ] } },
{ "type": "Feature", "properties": { "id": null, "Name": "Sable Rd", "Width (m)": null }, "geometry": { "type": "MultiLineString", "coordinates": [ [ [ 666009.90883560560178, 7769593.262042063288391 ], [ 665985.597734216600657, 7769638.322215846739709 ], [ 665967.599706204724498, 7769672.017921911552548 ] ] ] } },
{ "type": "Feature", "properties": { "id": null, "Name": null, "Width (m)": null }, "geometry": { "type": "MultiLineString", "coordinates": [ [ [ 665918.273645123117603, 7769637.529143245890737 ], [ 665967.419200064847246, 7769672.355863480828702 ] ] ] } },
{ "type": "Feature", "properties": { "id": null, "Name": null, "Width (m)": null }, "geometry": { "type": "MultiLineString", "coordinates": [ [ [ 665934.128292643232271, 7769606.654303338378668 ], [ 665985.597734216600657, 7769638.322215846739709 ] ] ] } },
{ "type": "Feature", "properties": { "id": null, "Name": null, "Width (m)": null }, "geometry": { "type": "MultiLineString", "coordinates": [ [ [ 665993.14277464535553, 7769493.165390934795141 ], [ 665994.066940760938451, 7769493.640433969907463 ], [ 665994.999174198135734, 7769494.099443461745977 ], [ 665995.939196813851595, 7769494.542282457463443 ], [ 665996.88672814075835, 7769494.968818832188845 ], [ 665997.841485471581109, 7769495.378925323486328 ], [ 665998.803183942683972, 7769495.77247957047075 ], [ 665999.771536619751714, 7769496.149364151991904 ], [ 666000.746254582889378, 7769496.509466619230807 ], [ 666001.727047013118863, 7769496.852679531089962 ], [ 666002.713621279224753, 7769497.178900487720966 ], [ 666003.705683024716564, 7769497.488032154738903 ], [ 666004.702936255838722, 7769497.77998230047524 ], [ 666005.705083430046216, 7769498.05466381739825 ], [ 666006.71182554459665, 7769498.311994751915336 ], [ 666007.722862225607969, 7769498.551898324862123 ], [ 666008.737891817931086, 7769498.774302958510816 ], [ 666009.756611475371756, 7769498.979142296127975 ], [ 666010.778717250446789, 7769499.166355220600963 ], [ 666011.803904185420834, 7769499.335885875858366 ], [ 666012.831866403226741, 7769499.487683679908514 ], [ 666013.862297199084423, 7769499.621703341603279 ], [ 666014.894889131188393, 7769499.737904874607921 ], [ 666015.929334113374352, 7769499.836253608576953 ], [ 666016.965323506155983, 7769499.916720201261342 ], [ 666018.00254820974078, 7769499.979280643165112 ], [ 666019.040698755416088, 7769500.023916269652545 ], [ 666020.079465398448519, 7769500.050613761879504 ], [ 666021.11853820993565, 7769500.059365155175328 ], [ 666022.157607170171104, 7769500.05016783811152 ], [ 666023.196362260030583, 7769500.023024555295706 ], [ 666024.234493554453366, 7769499.977943404577672 ], [ 666025.271691314410418, 7769499.914937837049365 ], [ 666026.307646079105325, 7769499.834026651456952 ], [ 666027.342048758990131, 7769499.735233987681568 ], [ 666028.374590727500618, 7769499.618589322082698 ], [ 666029.404963913024403, 7769499.484127457253635 ], [ 666030.432860891334713, 7769499.331888511776924 ], [ 666031.457974976743571, 7769499.16191790625453 ], [ 666032.480000314186327, 7769498.974266355857253 ], [ 666033.498631969676353, 7769498.768989847972989 ], [ 666034.513566022389568, 7769498.54614962823689 ], [ 666035.524499654187821, 7769498.305812185630202 ], [ 666036.531131240888499, 7769498.048049225471914 ], [ 666037.533160441555083, 7769497.772937656380236 ], [ 666038.530288288719021, 7769497.480559560470283 ], [ 666039.522217277204618, 7769497.171002171933651 ], [ 666040.508651452721097, 7769496.84435785189271 ], [ 666041.489296500803903, 7769496.50072405859828 ], [ 666042.463859834009781, 7769496.140203317627311 ], [ 666043.432050679577515, 7769495.76290319673717 ], [ 666044.39358016604092, 7769495.36893626768142 ], [ 666045.348161409259774, 7769494.958420074544847 ], [ 666046.29550959833432, 7769494.531477100215852 ], [ 666047.235342080355622, 7769494.088234728202224 ], [ 666048.167378445039503, 7769493.628825206309557 ], [ 666049.091340607963502, 7769493.153385602869093 ], [ 666050.006952893687412, 7769492.662057772278786 ], [ 666050.913942118175328, 7769492.154988308437169 ], [ 666051.812037670286372, 7769491.632328500971198 ], [ 666052.700971592101268, 7769491.094234293326735 ], [ 666053.580478659481741, 7769490.540866229683161 ], [ 666054.450296460767277, 7769489.972389416769147 ], [ 666055.310165475355461, 7769489.388973465189338 ], [ 666056.159829150652513, 7769488.790792444720864 ] ] ] } },
{ "type": "Feature", "properties": { "id": null, "Name": null, "Width (m)": null }, "geometry": { "type": "MultiLineString", "coordinates": [ [ [ 666056.159829150652513, 7769488.790792444720864 ], [ 666056.46114005392883, 7769488.573335048742592 ] ] ] } },
{ "type": "Feature", "properties": { "id": null, "Name": null, "Width (m)": null }, "geometry": { "type": "MultiLineString", "coordinates": [ [ [ 666031.832537893322296, 7769543.909909258596599 ], [ 666039.076367591740564, 7769594.548351437784731 ], [ 666051.567306776647456, 7769681.806672018021345 ], [ 666054.096875877119601, 7769702.967042420990765 ] ] ] } },
{ "type": "Feature", "properties": { "id": null, "Name": null, "Width (m)": null }, "geometry": { "type": "MultiLineString", "coordinates": [ [ [ 666022.967334387940355, 7769731.929592178203166 ], [ 666023.362040199805051, 7769732.065870841965079 ], [ 666023.759059923584573, 7769732.195253573358059 ], [ 666024.158273089909926, 7769732.317701113410294 ], [ 666024.559558564098552, 7769732.433176307938993 ], [ 666024.962794582592323, 7769732.541644116863608 ], [ 666025.367858790210448, 7769732.643071628175676 ], [ 666025.774628276587464, 7769732.737428064458072 ], [ 666026.182979614357464, 7769732.824684795923531 ], [ 666026.592788895941339, 7769732.904815345071256 ], [ 666027.003931771381758, 7769732.977795397862792 ], [ 666027.41628348629456, 7769733.043602810241282 ], [ 666027.829718919005245, 7769733.102217613719404 ], [ 666028.244112619431689, 7769733.15362202282995 ], [ 666028.659338846686296, 7769733.197800438851118 ], [ 666029.075271607143804, 7769733.234739457257092 ], [ 666029.491784692625515, 7769733.264427868649364 ], [ 666029.908751719282009, 7769733.286856666207314 ], [ 666030.326046165078878, 7769733.302019042894244 ], [ 666030.743541409028694, 7769733.309910397976637 ], [ 666031.161110769025981, 7769733.310528337955475 ], [ 666031.578627540380694, 7769733.303872674703598 ], [ 666031.995965034584515, 7769733.289945428259671 ], [ 666032.412996617262252, 7769733.268750823102891 ], [ 666032.829595747054555, 7769733.240295291878283 ], [ 666033.245636013802141, 7769733.204587468877435 ], [ 666033.660991176962852, 7769733.161638188175857 ], [ 666034.075535203679465, 7769733.111460482701659 ], [ 666034.489142307429574, 7769733.054069578647614 ], [ 666034.901686985976994, 7769732.989482888951898 ], [ 666035.313044059206732, 7769732.917720011435449 ], [ 666035.723088707658462, 7769732.83880272321403 ], [ 666036.131696510012262, 7769732.752754968591034 ], [ 666036.538743480923586, 7769732.659602857194841 ], [ 666036.944106108625419, 7769732.559374656528234 ], [ 666037.347661392414011, 7769732.452100777067244 ], [ 666037.749286880134605, 7769732.337813770398498 ], [ 666038.148860704968683, 7769732.216548315249383 ], [ 666038.546261623036116, 7769732.088341207243502 ], [ 666038.94136904925108, 7769731.953231348656118 ], [ 666039.334063094924204, 7769731.811259735375643 ], [ 666039.724224603385665, 7769731.662469448521733 ], [ 666040.11173518653959, 7769731.506905634887516 ], [ 666040.496477260603569, 7769731.344615497626364 ], [ 666040.878334081964567, 7769731.175648281350732 ], [ 666041.257189782336354, 7769731.000055256299675 ], [ 666041.632929404149763, 7769730.817889702506363 ], [ 666042.005438935593702, 7769730.62920689675957 ], [ 666042.374605344492011, 7769730.434064091183245 ], [ 666042.740316613344476, 7769730.232520497404039 ], [ 666043.102461773320101, 7769730.024637271650136 ], [ 666043.460930937086232, 7769729.810477493330836 ], [ 666043.815615333151072, 7769729.590106144547462 ], [ 666044.166407338459976, 7769729.363590093329549 ], [ 666044.513200510758907, 7769729.130998073145747 ], [ 666044.855889621307142, 7769728.892400659620762 ], [ 666045.194370686891489, 7769728.647870251908898 ], [ 666045.528541000909172, 7769728.397481047548354 ], [ 666045.858299164799973, 7769728.141309024766088 ], [ 666046.183545118779875, 7769727.8794319126755 ], [ 666046.504180172458291, 7769727.611929175443947 ], [ 666046.820107034291141, 7769727.338881981559098 ], [ 666047.131229841383174, 7769727.060373182408512 ], [ 666047.437454188708216, 7769726.776487287133932 ], [ 666047.738687157514505, 7769726.487310436554253 ], [ 666048.034837343497202, 7769726.192930377088487 ], [ 666048.325814884738065, 7769725.893436432816088 ], [ 666048.611531488830224, 7769725.588919480331242 ], [ 666048.891900460002944, 7769725.279471920803189 ], [ 666049.166836724500172, 7769724.965187650173903 ], [ 666049.436256857705303, 7769724.646162033081055 ], [ 666049.700079108355567, 7769724.322491873987019 ], [ 666049.958223424036987, 7769723.994275383651257 ], [ 666050.210611474933103, 7769723.661612153984606 ], [ 666050.457166678039357, 7769723.32460312731564 ], [ 666050.697814220213331, 7769722.983350563794374 ], [ 666050.932481080992147, 7769722.637958008795977 ], [ 666051.161096054594964, 7769722.288530267775059 ], [ 666051.383589771343395, 7769721.935173369012773 ], [ 666051.599894719314761, 7769721.577994531951845 ], [ 666051.809945264249109, 7769721.217102136462927 ], [ 666052.013677669689059, 7769720.852605690248311 ], [ 666052.211030116537586, 7769720.484615794382989 ], [ 666052.401942721451633, 7769720.113244107924402 ], [ 666052.58635755488649, 7769719.738603318110108 ], [ 666052.764218659256585, 7769719.360807103104889 ], [ 666052.935472065699287, 7769718.979970100335777 ], [ 666053.100065810023807, 7769718.596207866445184 ], [ 666053.257949948892929, 7769718.20963685028255 ], [ 666053.409076575073414, 7769717.820374348200858 ], [ 666053.553399831638671, 7769717.4285384779796 ], [ 666053.690875926055014, 7769717.034248133189976 ], [ 666053.821463143453002, 7769716.637622956186533 ], [ 666053.945121859200299, 7769716.238783296197653 ], [ 666054.061814551241696, 7769715.837850174866617 ], [ 666054.171505810925737, 7769715.434945248998702 ], [ 666054.274162354297005, 7769715.030190772376955 ], [ 666054.369753031991422, 7769714.623709561303258 ], [ 666054.458248838433065, 7769714.215624957345426 ], [ 666054.539622921147384, 7769713.80606078542769 ], [ 666054.61385058844462, 7769713.395141321234405 ], [ 666054.680909317103215, 7769712.98299125302583 ], [ 666054.740778759354725, 7769712.569735638797283 ], [ 666054.793440748704597, 7769712.155499876476824 ], [ 666054.838879305869341, 7769711.740409657359123 ], [ 666054.8770806430839, 7769711.324590935371816 ], [ 666054.908033168874681, 7769710.908169882372022 ], [ 666054.931727491202764, 7769710.491272854618728 ], [ 666054.948156420374289, 7769710.074026353657246 ], [ 666054.95731497136876, 7769709.656556986272335 ], [ 666054.959200365119614, 7769709.23899142537266 ] ] ] } },
{ "type": "Feature", "properties": { "id": null, "Name": null, "Width (m)": null }, "geometry": { "type": "MultiLineString", "coordinates": [ [ [ 666054.959200365119614, 7769709.23899142537266 ], [ 666054.096875877119601, 7769702.967042420990765 ] ] ] } },
{ "type": "Feature", "properties": { "id": null, "Name": null, "Width (m)": null }, "geometry": { "type": "MultiLineString", "coordinates": [ [ [ 666012.831866403226741, 7769499.487683679908514 ], [ 666009.90883560560178, 7769593.262042063288391 ] ] ] } },
{ "type": "Feature", "properties": { "id": null, "Name": null, "Width (m)": null }, "geometry": { "type": "MultiLineString", "coordinates": [ [ [ 666009.90883560560178, 7769593.262042063288391 ], [ 666039.076367591740564, 7769594.548351437784731 ] ] ] } },
{ "type": "Feature", "properties": { "id": null, "Name": null, "Width (m)": null }, "geometry": { "type": "MultiLineString", "coordinates": [ [ [ 666012.413034572848119, 7769463.543421017937362 ], [ 666006.71182554459665, 7769498.311994751915336 ] ] ] } },
{ "type": "Feature", "properties": { "id": null, "Name": null, "Width (m)": null }, "geometry": { "type": "MultiLineString", "coordinates": [ [ [ 665925.31373823073227, 7769489.635869979858398 ], [ 665898.931424428476021, 7769516.02711468283087 ], [ 665861.991856016917154, 7769552.459702734835446 ] ] ] } },
{ "type": "Feature", "properties": { "id": null, "Name": null, "Width (m)": null }, "geometry": { "type": "MultiLineString", "coordinates": [ [ [ 665920.767096293158829, 7769632.92005268111825 ], [ 665865.508534954977222, 7769598.363191305659711 ] ] ] } },
{ "type": "Feature", "properties": { "id": null, "Name": null, "Width (m)": null }, "geometry": { "type": "MultiLineString", "coordinates": [ [ [ 665864.182711974834092, 7769597.246833035722375 ], [ 665863.775292345322669, 7769596.825100866146386 ], [ 665863.375272969249636, 7769596.396343037486076 ], [ 665862.982774979667738, 7769595.960689384490252 ], [ 665862.597917232080363, 7769595.518271830864251 ], [ 665862.220816268352792, 7769595.0692243501544 ], [ 665861.851586281554773, 7769594.613682920113206 ], [ 665861.490339081035927, 7769594.151785489171743 ], [ 665861.13718405936379, 7769593.683671926148236 ], [ 665860.792228157864884, 7769593.209483984857798 ], [ 665860.455575835774653, 7769592.729365258477628 ], [ 665860.127329037291929, 7769592.243461135774851 ], [ 665859.807587161660194, 7769591.751918757334352 ], [ 665859.496447032317519, 7769591.254886969923973 ], [ 665859.19400286837481, 7769590.752516285516322 ], [ 665858.900346255279146, 7769590.244958830066025 ], [ 665858.615566117572598, 7769589.732368300668895 ], [ 665858.339748691767454, 7769589.214899920858443 ], [ 665858.072977500618435, 7769588.69271038658917 ], [ 665857.815333327045664, 7769588.165957828983665 ], [ 665857.566894190385938, 7769587.634801757521927 ], [ 665857.327735322644003, 7769587.099403015337884 ], [ 665857.097929145442322, 7769586.559923730790615 ], [ 665856.877545248251408, 7769586.016527269035578 ], [ 665856.666650367202237, 7769585.469378178939223 ], [ 665856.465308365179226, 7769584.918642148375511 ], [ 665856.273580212146044, 7769584.3644859502092 ], [ 665856.091523966868408, 7769583.80707739200443 ], [ 665855.919194759335369, 7769583.246585267595947 ], [ 665855.756644773879088, 7769582.683179304003716 ], [ 665855.603923233691603, 7769582.117030111141503 ], [ 665855.461076385458, 7769581.548309129662812 ], [ 665855.328147485968657, 7769580.977188577875495 ], [ 665855.205176788382232, 7769580.403841401450336 ], [ 665855.092201530467719, 7769579.828441220335662 ], [ 665854.989255923195742, 7769579.251162275671959 ], [ 665854.896371140377596, 7769578.672179379500449 ], [ 665854.813575309235603, 7769578.091667857021093 ], [ 665854.740893501788378, 7769577.509803498163819 ], [ 665854.678347727516666, 7769576.926762502640486 ], [ 665854.625956926262006, 7769576.34272142406553 ], [ 665854.583736962988041, 7769575.757857121527195 ], [ 665854.551700622658245, 7769575.172346703708172 ], [ 665854.529857606394216, 7769574.586367472074926 ], [ 665854.518214528798126, 7769574.000096872448921 ], [ 665854.516774915507995, 7769573.413712438195944 ], [ 665854.525539202499203, 7769572.827391737140715 ], [ 665854.544504735735245, 7769572.241312317550182 ], [ 665854.573665772099048, 7769571.655651655048132 ], [ 665854.613013481139205, 7769571.07058709859848 ], [ 665854.662535947747529, 7769570.486295816488564 ], [ 665854.722218175418675, 7769569.902954742312431 ], [ 665854.792042091488838, 7769569.320740522816777 ], [ 665854.871986551908776, 7769568.739829462021589 ], [ 665854.962027348112315, 7769568.160397470928729 ], [ 665855.062137214117683, 7769567.582620011642575 ], [ 665855.172285834676586, 7769567.006672047078609 ], [ 665855.292439854936674, 7769566.432727982290089 ], [ 665855.422562890104018, 7769565.860961620695889 ], [ 665855.562615536502562, 7769565.291546101681888 ], [ 665855.712555383564904, 7769564.724653854034841 ], [ 665855.872337026987225, 7769564.160456545650959 ], [ 665856.04191208188422, 7769563.599125022999942 ], [ 665856.221229197806679, 7769563.040829269215465 ], [ 665856.410234074457549, 7769562.485738344490528 ], [ 665856.608869477524422, 7769561.934020342305303 ], [ 665856.817075256723911, 7769561.385842332616448 ], [ 665857.034788363496773, 7769560.84137031249702 ], [ 665857.261942870449275, 7769560.300769159570336 ], [ 665857.498469991143793, 7769559.764202576130629 ], [ 665857.744298100704327, 7769559.231833044439554 ], [ 665857.999352757935412, 7769558.703821776434779 ], [ 665858.263556727790274, 7769558.180328663438559 ], [ 665858.536830004421063, 7769557.661512228660285 ], [ 665858.819089835858904, 7769557.147529577836394 ], [ 665859.110250748577528, 7769556.638536356389523 ], [ 665859.410224573803134, 7769556.134686694480479 ], [ 665859.71892047394067, 7769555.636133168824017 ], [ 665860.036244970513508, 7769555.143026748672128 ], [ 665860.362101971753873, 7769554.655516756698489 ], [ 665860.69639280217234, 7769554.173750820569694 ], [ 665861.039016232592985, 7769553.697874825447798 ], [ 665861.389868510421365, 7769553.228032877668738 ], [ 665861.748843391076662, 7769552.76436725165695 ] ] ] } },
{ "type": "Feature", "properties": { "id": null, "Name": null, "Width (m)": null }, "geometry": { "type": "MultiLineString", "coordinates": [ [ [ 665861.748843391076662, 7769552.76436725165695 ], [ 665861.991856016917154, 7769552.459702734835446 ] ] ] } },
{ "type": "Feature", "properties": { "id": null, "Name": null, "Width (m)": null }, "geometry": { "type": "MultiLineString", "coordinates": [ [ [ 665865.508534954977222, 7769598.363191305659711 ], [ 665864.182711974834092, 7769597.246833035722375 ] ] ] } },
{ "type": "Feature", "properties": { "id": null, "Name": null, "Width (m)": null }, "geometry": { "type": "MultiLineString", "coordinates": [ [ [ 665898.931424428476021, 7769516.02711468283087 ], [ 665954.146949468296953, 7769567.641627220436931 ] ] ] } },
{ "type": "Feature", "properties": { "id": null, "Name": null, "Width (m)": null }, "geometry": { "type": "MultiLineString", "coordinates": [ [ [ 665912.057819385780022, 7769443.406987133435905 ], [ 665891.791349285980687, 7769449.892236036248505 ] ] ] } },
{ "type": "Feature", "properties": { "id": null, "Name": null, "Width (m)": null }, "geometry": { "type": "MultiLineString", "coordinates": [ [ [ 666038.842231852584518, 7769423.331632270477712 ], [ 666040.652996234013699, 7769421.436728922650218 ], [ 666042.430553276790306, 7769419.510640321299434 ], [ 666044.174365990329534, 7769417.553948326036334 ], [ 666045.883907577954233, 7769415.567244045436382 ], [ 666047.558661596151069, 7769413.551127649843693 ], [ 666049.198122110916302, 7769411.506208198145032 ], [ 666050.801793849677779, 7769409.433103450573981 ], [ 666052.369192351819947, 7769407.332439679652452 ], [ 666053.899844114668667, 7769405.204851485788822 ], [ 666055.393286736216396, 7769403.050981601700187 ], [ 666056.977624194812961, 7769400.657706980593503 ], [ 666058.266751288669184, 7769398.66700719576329 ], [ 666059.645905161043629, 7769396.43822705000639 ], [ 666060.986114037688822, 7769394.185813564807177 ], [ 666062.28697304870002, 7769391.910447182133794 ], [ 666063.548089211457409, 7769389.612815278582275 ], [ 666064.769081549486145, 7769387.293611955828965 ], [ 666065.949581207474694, 7769384.953537832945585 ], [ 666067.089231562567875, 7769382.593299834989011 ], [ 666068.187688332749531, 7769380.213610975071788 ], [ 666069.244619679753669, 7769377.815190147608519 ], [ 666070.259706310578622, 7769375.398761900141835 ], [ 666071.232641572598368, 7769372.965056223794818 ], [ 666072.163131547509693, 7769370.514808328822255 ], [ 666073.050895138992928, 7769368.048758421093225 ], [ 666073.89566415862646, 7769365.567651481367648 ], [ 666074.697183405980468, 7769363.072237038984895 ], [ 666075.455210746382363, 7769360.563268945552409 ], [ 666076.169517183909193, 7769358.041505147702992 ], [ 666076.839886930305511, 7769355.507707455195487 ], [ 666077.46611747040879, 7769352.962641316466033 ], [ 666078.04801962338388, 7769350.407075581140816 ] ] ] } },
{ "type": "Feature", "properties": { "id": null, "Name": null, "Width (m)": null }, "geometry": { "type": "MultiLineString", "coordinates": [ [ [ 666052.293521095998585, 7769397.842849832959473 ], [ 666056.977624194812961, 7769400.657706980593503 ] ] ] } },
{ "type": "Feature", "properties": { "id": null, "Name": null, "Width (m)": null }, "geometry": { "type": "MultiLineString", "coordinates": [ [ [ 666094.390966765233316, 7769362.227039637975395 ], [ 666078.04801962338388, 7769350.407075581140816 ], [ 666085.673289190861396, 7769317.564643759280443 ] ] ] } },
{ "type": "Feature", "properties": { "id": null, "Name": null, "Width (m)": null }, "geometry": { "type": "MultiLineString", "coordinates": [ ] } },
{ "type": "Feature", "properties": { "id": null, "Name": null, "Width (m)": null }, "geometry": { "type": "MultiLineString", "coordinates": [ [ [ 666085.420035829651169, 7769318.585174616426229 ], [ 666085.673289190861396, 7769317.564643759280443 ] ] ] } },
{ "type": "Feature", "properties": { "id": null, "Name": null, "Width (m)": null }, "geometry": { "type": "MultiLineString", "coordinates": [ [ [ 666001.561105589033104, 7769268.401308016851544 ], [ 666035.145423214067705, 7769287.960844617336988 ], [ 666085.673289190861396, 7769317.564643759280443 ] ] ] } },
{ "type": "Feature", "properties": { "id": null, "Name": null, "Width (m)": null }, "geometry": { "type": "MultiLineString", "coordinates": [ [ [ 666085.673289190861396, 7769317.564643759280443 ], [ 666104.187779895728454, 7769275.83906589448452 ], [ 666124.169398128171451, 7769230.552269794978201 ], [ 666132.5714619201608, 7769211.554768822155893 ], [ 666138.316341737983748, 7769152.244013306684792 ] ] ] } },
{ "type": "Feature", "properties": { "id": null, "Name": null, "Width (m)": null }, "geometry": { "type": "MultiLineString", "coordinates": [ [ [ 666001.171717879828066, 7769207.071932664141059 ], [ 666014.509497829480097, 7769180.396372764371336 ] ] ] } },
{ "type": "Feature", "properties": { "id": null, "Name": null, "Width (m)": null }, "geometry": { "type": "MultiLineString", "coordinates": [ [ [ 665955.39888214354869, 7769132.804748853668571 ], [ 666008.750001942156814, 7769160.995965565554798 ] ] ] } },
{ "type": "Feature", "properties": { "id": null, "Name": null, "Width (m)": null }, "geometry": { "type": "MultiLineString", "coordinates": [ [ [ 666008.750001942156814, 7769160.995965565554798 ], [ 666008.976038822438568, 7769161.14437382016331 ], [ 666009.199456552742049, 7769161.296696500852704 ], [ 666009.420187351992354, 7769161.452887394465506 ], [ 666009.638164254138246, 7769161.612899117171764 ], [ 666009.853321128757671, 7769161.776683122850955 ], [ 666010.065592700615525, 7769161.944189722649753 ], [ 666010.274914570269175, 7769162.115368098020554 ], [ 666010.481223232927732, 7769162.290166315622628 ], [ 666010.684456098009832, 7769162.468531345948577 ], [ 666010.884551508002914, 7769162.650409074500203 ], [ 666011.08144875743892, 7769162.835744322277606 ], [ 666011.275088110938668, 7769163.024480863474309 ], [ 666011.465410821605474, 7769163.216561438515782 ], [ 666011.652359148603864, 7769163.411927771754563 ], [ 666011.835876375087537, 7769163.610520593822002 ], [ 666012.015906824963167, 7769163.812279653735459 ], [ 666012.19239588000346, 7769164.017143742181361 ], [ 666012.365289996494539, 7769164.225050705485046 ], [ 666012.534536721068434, 7769164.435937470756471 ], [ 666012.700084707234055, 7769164.64974005613476 ], [ 666012.861883730511181, 7769164.866393597796559 ], [ 666013.019884703680873, 7769165.085832367651165 ], [ 666013.174039692035876, 7769165.307989791035652 ], [ 666013.324301927583292, 7769165.53279846906662 ], [ 666013.470625823130831, 7769165.760190199129283 ], [ 666013.612966986489482, 7769165.990095993503928 ], [ 666013.75128223374486, 7769166.222446103580296 ], [ 666013.885529602412134, 7769166.457170037552714 ], [ 666014.015668364125304, 7769166.694196584634483 ], [ 666014.141659036977217, 7769166.933453834615648 ], [ 666014.263463397393934, 7769167.174869201146066 ], [ 666014.381044492009096, 7769167.418369442224503 ], [ 666014.494366648839787, 7769167.663880683481693 ], [ 666014.603395487647504, 7769167.911328443326056 ], [ 666014.70809793099761, 7769168.160637647844851 ], [ 666014.808442213921808, 7769168.411732661537826 ], [ 666014.904397893697023, 7769168.664537307806313 ], [ 666014.995935858925804, 7769168.918974887579679 ], [ 666015.083028338500299, 7769169.174968210048974 ], [ 666015.165648910100572, 7769169.432439611293375 ], [ 666015.243772507994436, 7769169.691310978494585 ], [ 666015.317375430720858, 7769169.951503774151206 ], [ 666015.386435348540545, 7769170.212939060293138 ], [ 666015.450931309722364, 7769170.475537522695959 ], [ 666015.510843747295439, 7769170.739219492301345 ], [ 666015.566154484869912, 7769171.003904972225428 ], [ 666015.616846742108464, 7769171.269513662904501 ], [ 666015.662905139732175, 7769171.535964980721474 ], [ 666015.704315704409964, 7769171.803178091533482 ], [ 666015.741065872949548, 7769172.071071925573051 ], [ 666015.773144495906308, 7769172.339565209113061 ], [ 666015.800541841308586, 7769172.608576484955847 ], [ 666015.823249596985988, 7769172.878024140372872 ], [ 666015.841260874061845, 7769173.147826429456472 ], [ 666015.854570208000951, 7769173.417901498265564 ], [ 666015.863173561170697, 7769173.688167410902679 ], [ 666015.867068323306739, 7769173.958542173728347 ], [ 666015.866253312909976, 7769174.228943757712841 ], [ 666015.860728777130134, 7769174.499290130101144 ], [ 666015.850496392115019, 7769174.769499270245433 ], [ 666015.835559262079187, 7769175.039489202201366 ], [ 666015.815921918838285, 7769175.309178015217185 ], [ 666015.791590319946408, 7769175.578483890742064 ], [ 666015.762571847299114, 7769175.847325125709176 ], [ 666015.728875304455869, 7769176.115620157681406 ], [ 666015.690510914544575, 7769176.383287590928376 ], [ 666015.647490316536278, 7769176.650246218778193 ], [ 666015.599826562218368, 7769176.916415052488446 ], [ 666015.547534112003632, 7769177.181713338941336 ], [ 666015.490628830622882, 7769177.44606059230864 ], [ 666015.429127981886268, 7769177.70937661267817 ], [ 666015.363050224492326, 7769177.971581515856087 ], [ 666015.292415605043061, 7769178.232595752924681 ], [ 666015.217245553038083, 7769178.492340135388076 ], [ 666015.137562873773277, 7769178.750735863111913 ], [ 666015.053391741588712, 7769179.007704541087151 ], [ 666014.964757692650892, 7769179.263168211095035 ], [ 666014.871687617036514, 7769179.517049368470907 ], [ 666014.774209750583395, 7769179.769270990975201 ], [ 666014.672353666624986, 7769180.019756558351219 ], [ 666014.566150266327895, 7769180.268430077470839 ] ] ] } },
{ "type": "Feature", "properties": { "id": null, "Name": null, "Width (m)": null }, "geometry": { "type": "MultiLineString", "coordinates": [ [ [ 666014.509497829480097, 7769180.396372764371336 ], [ 666014.566150266327895, 7769180.268430077470839 ] ] ] } },
{ "type": "Feature", "properties": { "id": null, "Name": null, "Width (m)": null }, "geometry": { "type": "MultiLineString", "coordinates": [ ] } },
{ "type": "Feature", "properties": { "id": null, "Name": null, "Width (m)": null }, "geometry": { "type": "MultiLineString", "coordinates": [ [ [ 666124.169398128171451, 7769230.552269794978201 ], [ 666071.449620336759835, 7769205.283067353069782 ], [ 666053.972655228804797, 7769235.366367949172854 ], [ 666045.984278628719039, 7769231.227999054826796 ], [ 666033.960202019661665, 7769224.606043821200728 ], [ 666027.839139925199561, 7769221.157929589040577 ] ] ] } },
{ "type": "Feature", "properties": { "id": null, "Name": null, "Width (m)": null }, "geometry": { "type": "MultiLineString", "coordinates": [ [ [ 666022.110387390479445, 7769231.576523015275598 ], [ 666057.13704533863347, 7769250.396816837601364 ], [ 666104.187779895728454, 7769275.83906589448452 ] ] ] } },
{ "type": "Feature", "properties": { "id": null, "Name": null, "Width (m)": null }, "geometry": { "type": "MultiLineString", "coordinates": [ [ [ 666035.145423214067705, 7769287.960844617336988 ], [ 666057.13704533863347, 7769250.396816837601364 ] ] ] } },
{ "type": "Feature", "properties": { "id": null, "Name": "Zebra Rd", "Width (m)": null }, "geometry": { "type": "MultiLineString", "coordinates": [ [ [ 665948.529467565240338, 7769578.396294771693647 ], [ 666009.90883560560178, 7769593.262042063288391 ], [ 666009.90883560560178, 7769593.262042063288391 ] ] ] } },
{ "type": "Feature", "properties": { "id": null, "Name": null, "Width (m)": null }, "geometry": { "type": "MultiLineString", "coordinates": [ [ [ 665967.599706204724498, 7769672.017921911552548 ], [ 665967.419200064847246, 7769672.355863480828702 ], [ 665962.751547460327856, 7769680.795831823721528 ], [ 665966.542273038649, 7769705.505179644562304 ], [ 666022.967334387940355, 7769731.929592178203166 ] ] ] } }
]
}
