{
"type": "FeatureCollection",
"name": "TELECOM & MOBILE  NETWORK PROVIDERS",
"crs": { "type": "name", "properties": { "name": "urn:ogc:def:crs:OGC:1.3:CRS84" } },
"features": [
{ "type": "Feature", "properties": { "Name": "Tel One Telecommunications", "Proximity": "PowerTel Telecommunications" }, "geometry": { "type": "Point", "coordinates": [ 28.58852988615169, -20.167600940900954 ] } },
{ "type": "Feature", "properties": { "Name": "Powertel Telecommunications", "Proximity": "Tel One Telecommunications" }, "geometry": { "type": "Point", "coordinates": [ 28.588510885753067, -20.167267997841563 ] } },
{ "type": "Feature", "properties": { "Name": "NetOne Telecommunications", "Proximity": "CBZ Bank" }, "geometry": { "type": "Point", "coordinates": [ 28.588123808931282, -20.166973735817951 ] } }
]
}
