{
"type": "FeatureCollection",
"name": "ZITF BOUNDARY",
"crs": { "type": "name", "properties": { "name": "urn:ogc:def:crs:OGC:1.3:CRS84" } },
"features": [
{ "type": "Feature", "properties": { "id": null, "Name": null }, "geometry": { "type": "MultiPolygon", "coordinates": [ [ [ [ 28.586938239420956, -20.165017497969412 ], [ 28.587399955243018, -20.165815528677697 ], [ 28.588228112193562, -20.16514133058833 ], [ 28.588333656050281, -20.165040409256683 ], [ 28.588457404020936, -20.164933292500162 ], [ 28.58915835050572, -20.164627535910004 ], [ 28.58988656116788, -20.164442634168118 ], [ 28.589886561386898, -20.164442632037293 ], [ 28.590047722543918, -20.164420221820862 ], [ 28.590293892974472, -20.165331060802497 ], [ 28.589954644767708, -20.166923665629234 ], [ 28.590016426086532, -20.168940467146708 ], [ 28.589820824833165, -20.170175636605354 ], [ 28.590478756322085, -20.171510943936084 ], [ 28.588833185609065, -20.172283818820542 ], [ 28.586834497047178, -20.168621613384133 ], [ 28.587147485031402, -20.16828949560653 ], [ 28.587023842967206, -20.167991992729974 ], [ 28.587245003132967, -20.16782842908534 ], [ 28.587245003352251, -20.167828426954024 ], [ 28.587273840632314, -20.167551310196046 ], [ 28.586916481698179, -20.166951941154416 ], [ 28.586791802923976, -20.166651358520639 ], [ 28.586625321454303, -20.166236252153261 ], [ 28.58662532167358, -20.166236250022127 ], [ 28.587286044786921, -20.165884631778031 ], [ 28.586849030929063, -20.1651423194945 ], [ 28.586938239420956, -20.165017497969412 ] ] ] ] } }
]
}
